{"type": "FeatureCollection", "features": [{"type": "Feature", "properties": {"FOGLIO": "0001", "NUMERO": "1"}, "geometry": {"type": "Polygon", "coordinates": [[[7.55, 44.395], [7.55027, 44.395], [7.55027, 44.39518], [7.55, 44.39518], [7.55, 44.395]]]}}, {"type": "Feature", "properties": {"FOGLIO": "0001", "NUMERO": "2"}, "geometry": {"type": "Polygon", "coordinates": [[[7.5503, 44.395], [7.5505700000000004, 44.395], [7.5505700000000004, 44.39518], [7.5503, 44.39518], [7.5503, 44.395]]]}}, {"type": "Feature", "properties": {"FOGLIO": "0001", "NUMERO": "3"}, "geometry": {"type": "Polygon", "coordinates": [[[7.5506, 44.395], [7.550870000000001, 44.395], [7.550870000000001, 44.39518], [7.5506, 44.39518], [7.5506, 44.395]]]}}, {"type": "Feature", "properties": {"FOGLIO": "0001", "NUMERO": "4"}, "geometry": {"type": "Polygon", "coordinates": [[[7.5508999999999995, 44.395], [7.55117, 44.395], [7.55117, 44.39518], [7.5508999999999995, 44.39518], [7.5508999999999995, 44.395]]]}}, {"type": "Feature", "properties": {"FOGLIO": "0001", "NUMERO": "5"}, "geometry": {"type": "Polygon", "coordinates": [[[7.5512, 44.395], [7.55147, 44.395], [7.55147, 44.39518], [7.5512, 44.39518], [7.5512, 44.395]]]}}, {"type": "Feature", "properties": {"FOGLIO": "0001", "NUMERO": "6"}, "geometry": {"type": "Polygon", "coordinates": [[[7.5515, 44.395], [7.55177, 44.395], [7.55177, 44.39518], [7.5515, 44.39518], [7.5515, 44.395]]]}}, {"type": "Feature", "properties": {"FOGLIO": "0001", "NUMERO": "7"}, "geometry": {"type": "Polygon", "coordinates": [[[7.5518, 44.395], [7.5520700000000005, 44.395], [7.5520700000000005, 44.39518], [7.5518, 44.39518], [7.5518, 44.395]]]}}, {"type": "Feature", "properties": {"FOGLIO": "0001", "NUMERO": "8"}, "geometry": {"type": "Polygon", "coordinates": [[[7.5521, 44.395], [7.552370000000001, 44.395], [7.552370000000001, 44.39518], [7.5521, 44.39518], [7.5521, 44.395]]]}}, {"type": "Feature", "properties": {"FOGLIO": "0001", "NUMERO": "9"}, "geometry": {"type": "Polygon", "coordinates": [[[7.5524, 44.395], [7.55267, 44.395], [7.55267, 44.39518], [7.5524, 44.39518], [7.5524, 44.395]]]}}, {"type": "Feature", "properties": {"FOGLIO": "0001", "NUMERO": "10"}, "geometry": {"type": "Polygon", "coordinates": [[[7.5527, 44.395], [7.55297, 44.395], [7.55297, 44.39518], [7.5527, 44.39518], [7.5527, 44.395]]]}}, {"type": "Feature", "properties": {"FOGLIO": "0001", "NUMERO": "11"}, "geometry": {"type": "Polygon", "coordinates": [[[7.55, 44.3952], [7.55027, 44.3952], [7.55027, 44.39538], [7.55, 44.39538], [7.55, 44.3952]]]}}, {"type": "Feature", "properties": {"FOGLIO": "0001", "NUMERO": "12"}, "geometry": {"type": "Polygon", "coordinates": [[[7.5503, 44.3952], [7.5505700000000004, 44.3952], [7.5505700000000004, 44.39538], [7.5503, 44.39538], [7.5503, 44.3952]]]}}, {"type": "Feature", "properties": {"FOGLIO": "0001", "NUMERO": "13"}, "geometry": {"type": "Polygon", "coordinates": [[[7.5506, 44.3952], [7.550870000000001, 44.3952], [7.550870000000001, 44.39538], [7.5506, 44.39538], [7.5506, 44.3952]]]}}, {"type": "Feature", "properties": {"FOGLIO": "0001", "NUMERO": "14"}, "geometry": {"type": "Polygon", "coordinates": [[[7.5508999999999995, 44.3952], [7.55117, 44.3952], [7.55117, 44.39538], [7.5508999999999995, 44.39538], [7.5508999999999995, 44.3952]]]}}, {"type": "Feature", "properties": {"FOGLIO": "0001", "NUMERO": "15"}, "geometry": {"type": "Polygon", "coordinates": [[[7.5512, 44.3952], [7.55147, 44.3952], [7.55147, 44.39538], [7.5512, 44.39538], [7.5512, 44.3952]]]}}, {"type": "Feature", "properties": {"FOGLIO": "0001", "NUMERO": "16"}, "geometry": {"type": "Polygon", "coordinates": [[[7.5515, 44.3952], [7.55177, 44.3952], [7.55177, 44.39538], [7.5515, 44.39538], [7.5515, 44.3952]]]}}, {"type": "Feature", "properties": {"FOGLIO": "0001", "NUMERO": "17"}, "geometry": {"type": "Polygon", "coordinates": [[[7.5518, 44.3952], [7.5520700000000005, 44.3952], [7.5520700000000005, 44.39538], [7.5518, 44.39538], [7.5518, 44.3952]]]}}, {"type": "Feature", "properties": {"FOGLIO": "0001", "NUMERO": "18"}, "geometry": {"type": "Polygon", "coordinates": [[[7.5521, 44.3952], [7.552370000000001, 44.3952], [7.552370000000001, 44.39538], [7.5521, 44.39538], [7.5521, 44.3952]]]}}, {"type": "Feature", "properties": {"FOGLIO": "0001", "NUMERO": "19"}, "geometry": {"type": "Polygon", "coordinates": [[[7.5524, 44.3952], [7.55267, 44.3952], [7.55267, 44.39538], [7.5524, 44.39538], [7.5524, 44.3952]]]}}, {"type": "Feature", "properties": {"FOGLIO": "0001", "NUMERO": "20"}, "geometry": {"type": "Polygon", "coordinates": [[[7.5527, 44.3952], [7.55297, 44.3952], [7.55297, 44.39538], [7.5527, 44.39538], [7.5527, 44.3952]]]}}, {"type": "Feature", "properties": {"FOGLIO": "0001", "NUMERO": "21"}, "geometry": {"type": "Polygon", "coordinates": [[[7.55, 44.3954], [7.55027, 44.3954], [7.55027, 44.39558], [7.55, 44.39558], [7.55, 44.3954]]]}}, {"type": "Feature", "properties": {"FOGLIO": "0001", "NUMERO": "22"}, "geometry": {"type": "Polygon", "coordinates": [[[7.5503, 44.3954], [7.5505700000000004, 44.3954], [7.5505700000000004, 44.39558], [7.5503, 44.39558], [7.5503, 44.3954]]]}}, {"type": "Feature", "properties": {"FOGLIO": "0001", "NUMERO": "23"}, "geometry": {"type": "Polygon", "coordinates": [[[7.5506, 44.3954], [7.550870000000001, 44.3954], [7.550870000000001, 44.39558], [7.5506, 44.39558], [7.5506, 44.3954]]]}}, {"type": "Feature", "properties": {"FOGLIO": "0001", "NUMERO": "24"}, "geometry": {"type": "Polygon", "coordinates": [[[7.5508999999999995, 44.3954], [7.55117, 44.3954], [7.55117, 44.39558], [7.5508999999999995, 44.39558], [7.5508999999999995, 44.3954]]]}}, {"type": "Feature", "properties": {"FOGLIO": "0001", "NUMERO": "25"}, "geometry": {"type": "Polygon", "coordinates": [[[7.5512, 44.3954], [7.55147, 44.3954], [7.55147, 44.39558], [7.5512, 44.39558], [7.5512, 44.3954]]]}}, {"type": "Feature", "properties": {"FOGLIO": "0001", "NUMERO": "26"}, "geometry": {"type": "Polygon", "coordinates": [[[7.5515, 44.3954], [7.55177, 44.3954], [7.55177, 44.39558], [7.5515, 44.39558], [7.5515, 44.3954]]]}}, {"type": "Feature", "properties": {"FOGLIO": "0001", "NUMERO": "27"}, "geometry": {"type": "Polygon", "coordinates": [[[7.5518, 44.3954], [7.5520700000000005, 44.3954], [7.5520700000000005, 44.39558], [7.5518, 44.39558], [7.5518, 44.3954]]]}}, {"type": "Feature", "properties": {"FOGLIO": "0001", "NUMERO": "28"}, "geometry": {"type": "Polygon", "coordinates": [[[7.5521, 44.3954], [7.552370000000001, 44.3954], [7.552370000000001, 44.39558], [7.5521, 44.39558], [7.5521, 44.3954]]]}}, {"type": "Feature", "properties": {"FOGLIO": "0001", "NUMERO": "29"}, "geometry": {"type": "Polygon", "coordinates": [[[7.5524, 44.3954], [7.55267, 44.3954], [7.55267, 44.39558], [7.5524, 44.39558], [7.5524, 44.3954]]]}}, {"type": "Feature", "properties": {"FOGLIO": "0001", "NUMERO": "30"}, "geometry": {"type": "Polygon", "coordinates": [[[7.5527, 44.3954], [7.55297, 44.3954], [7.55297, 44.39558], [7.5527, 44.39558], [7.5527, 44.3954]]]}}, {"type": "Feature", "properties": {"FOGLIO": "0001", "NUMERO": "31"}, "geometry": {"type": "Polygon", "coordinates": [[[7.55, 44.3956], [7.55027, 44.3956], [7.55027, 44.39578], [7.55, 44.39578], [7.55, 44.3956]]]}}, {"type": "Feature", "properties": {"FOGLIO": "0001", "NUMERO": "32"}, "geometry": {"type": "Polygon", "coordinates": [[[7.5503, 44.3956], [7.5505700000000004, 44.3956], [7.5505700000000004, 44.39578], [7.5503, 44.39578], [7.5503, 44.3956]]]}}, {"type": "Feature", "properties": {"FOGLIO": "0001", "NUMERO": "33"}, "geometry": {"type": "Polygon", "coordinates": [[[7.5506, 44.3956], [7.550870000000001, 44.3956], [7.550870000000001, 44.39578], [7.5506, 44.39578], [7.5506, 44.3956]]]}}, {"type": "Feature", "properties": {"FOGLIO": "0001", "NUMERO": "34"}, "geometry": {"type": "Polygon", "coordinates": [[[7.5508999999999995, 44.3956], [7.55117, 44.3956], [7.55117, 44.39578], [7.5508999999999995, 44.39578], [7.5508999999999995, 44.3956]]]}}, {"type": "Feature", "properties": {"FOGLIO": "0001", "NUMERO": "35"}, "geometry": {"type": "Polygon", "coordinates": [[[7.5512, 44.3956], [7.55147, 44.3956], [7.55147, 44.39578], [7.5512, 44.39578], [7.5512, 44.3956]]]}}, {"type": "Feature", "properties": {"FOGLIO": "0001", "NUMERO": "36"}, "geometry": {"type": "Polygon", "coordinates": [[[7.5515, 44.3956], [7.55177, 44.3956], [7.55177, 44.39578], [7.5515, 44.39578], [7.5515, 44.3956]]]}}, {"type": "Feature", "properties": {"FOGLIO": "0001", "NUMERO": "37"}, "geometry": {"type": "Polygon", "coordinates": [[[7.5518, 44.3956], [7.5520700000000005, 44.3956], [7.5520700000000005, 44.39578], [7.5518, 44.39578], [7.5518, 44.3956]]]}}, {"type": "Feature", "properties": {"FOGLIO": "0001", "NUMERO": "38"}, "geometry": {"type": "Polygon", "coordinates": [[[7.5521, 44.3956], [7.552370000000001, 44.3956], [7.552370000000001, 44.39578], [7.5521, 44.39578], [7.5521, 44.3956]]]}}, {"type": "Feature", "properties": {"FOGLIO": "0001", "NUMERO": "39"}, "geometry": {"type": "Polygon", "coordinates": [[[7.5524, 44.3956], [7.55267, 44.3956], [7.55267, 44.39578], [7.5524, 44.39578], [7.5524, 44.3956]]]}}, {"type": "Feature", "properties": {"FOGLIO": "0001", "NUMERO": "40"}, "geometry": {"type": "Polygon", "coordinates": [[[7.5527, 44.3956], [7.55297, 44.3956], [7.55297, 44.39578], [7.5527, 44.39578], [7.5527, 44.3956]]]}}, {"type": "Feature", "properties": {"FOGLIO": "0001", "NUMERO": "41"}, "geometry": {"type": "Polygon", "coordinates": [[[7.55, 44.3958], [7.55027, 44.3958], [7.55027, 44.39598], [7.55, 44.39598], [7.55, 44.3958]]]}}, {"type": "Feature", "properties": {"FOGLIO": "0001", "NUMERO": "42"}, "geometry": {"type": "Polygon", "coordinates": [[[7.5503, 44.3958], [7.5505700000000004, 44.3958], [7.5505700000000004, 44.39598], [7.5503, 44.39598], [7.5503, 44.3958]]]}}, {"type": "Feature", "properties": {"FOGLIO": "0001", "NUMERO": "43"}, "geometry": {"type": "Polygon", "coordinates": [[[7.5506, 44.3958], [7.550870000000001, 44.3958], [7.550870000000001, 44.39598], [7.5506, 44.39598], [7.5506, 44.3958]]]}}, {"type": "Feature", "properties": {"FOGLIO": "0001", "NUMERO": "44"}, "geometry": {"type": "Polygon", "coordinates": [[[7.5508999999999995, 44.3958], [7.55117, 44.3958], [7.55117, 44.39598], [7.5508999999999995, 44.39598], [7.5508999999999995, 44.3958]]]}}, {"type": "Feature", "properties": {"FOGLIO": "0001", "NUMERO": "45"}, "geometry": {"type": "Polygon", "coordinates": [[[7.5512, 44.3958], [7.55147, 44.3958], [7.55147, 44.39598], [7.5512, 44.39598], [7.5512, 44.3958]]]}}, {"type": "Feature", "properties": {"FOGLIO": "0001", "NUMERO": "46"}, "geometry": {"type": "Polygon", "coordinates": [[[7.5515, 44.3958], [7.55177, 44.3958], [7.55177, 44.39598], [7.5515, 44.39598], [7.5515, 44.3958]]]}}, {"type": "Feature", "properties": {"FOGLIO": "0001", "NUMERO": "47"}, "geometry": {"type": "Polygon", "coordinates": [[[7.5518, 44.3958], [7.5520700000000005, 44.3958], [7.5520700000000005, 44.39598], [7.5518, 44.39598], [7.5518, 44.3958]]]}}, {"type": "Feature", "properties": {"FOGLIO": "0001", "NUMERO": "48"}, "geometry": {"type": "Polygon", "coordinates": [[[7.5521, 44.3958], [7.552370000000001, 44.3958], [7.552370000000001, 44.39598], [7.5521, 44.39598], [7.5521, 44.3958]]]}}, {"type": "Feature", "properties": {"FOGLIO": "0001", "NUMERO": "49"}, "geometry": {"type": "Polygon", "coordinates": [[[7.5524, 44.3958], [7.55267, 44.3958], [7.55267, 44.39598], [7.5524, 44.39598], [7.5524, 44.3958]]]}}, {"type": "Feature", "properties": {"FOGLIO": "0001", "NUMERO": "50"}, "geometry": {"type": "Polygon", "coordinates": [[[7.5527, 44.3958], [7.55297, 44.3958], [7.55297, 44.39598], [7.5527, 44.39598], [7.5527, 44.3958]]]}}, {"type": "Feature", "properties": {"FOGLIO": "0002", "NUMERO": "1"}, "geometry": {"type": "Polygon", "coordinates": [[[7.5542, 44.395], [7.55447, 44.395], [7.55447, 44.39518], [7.5542, 44.39518], [7.5542, 44.395]]]}}, {"type": "Feature", "properties": {"FOGLIO": "0002", "NUMERO": "2"}, "geometry": {"type": "Polygon", "coordinates": [[[7.5545, 44.395], [7.55477, 44.395], [7.55477, 44.39518], [7.5545, 44.39518], [7.5545, 44.395]]]}}, {"type": "Feature", "properties": {"FOGLIO": "0002", "NUMERO": "3"}, "geometry": {"type": "Polygon", "coordinates": [[[7.5548, 44.395], [7.555070000000001, 44.395], [7.555070000000001, 44.39518], [7.5548, 44.39518], [7.5548, 44.395]]]}}, {"type": "Feature", "properties": {"FOGLIO": "0002", "NUMERO": "4"}, "geometry": {"type": "Polygon", "coordinates": [[[7.5550999999999995, 44.395], [7.55537, 44.395], [7.55537, 44.39518], [7.5550999999999995, 44.39518], [7.5550999999999995, 44.395]]]}}, {"type": "Feature", "properties": {"FOGLIO": "0002", "NUMERO": "5"}, "geometry": {"type": "Polygon", "coordinates": [[[7.5554, 44.395], [7.55567, 44.395], [7.55567, 44.39518], [7.5554, 44.39518], [7.5554, 44.395]]]}}, {"type": "Feature", "properties": {"FOGLIO": "0002", "NUMERO": "6"}, "geometry": {"type": "Polygon", "coordinates": [[[7.5557, 44.395], [7.55597, 44.395], [7.55597, 44.39518], [7.5557, 44.39518], [7.5557, 44.395]]]}}, {"type": "Feature", "properties": {"FOGLIO": "0002", "NUMERO": "7"}, "geometry": {"type": "Polygon", "coordinates": [[[7.556, 44.395], [7.5562700000000005, 44.395], [7.5562700000000005, 44.39518], [7.556, 44.39518], [7.556, 44.395]]]}}, {"type": "Feature", "properties": {"FOGLIO": "0002", "NUMERO": "8"}, "geometry": {"type": "Polygon", "coordinates": [[[7.5563, 44.395], [7.556570000000001, 44.395], [7.556570000000001, 44.39518], [7.5563, 44.39518], [7.5563, 44.395]]]}}, {"type": "Feature", "properties": {"FOGLIO": "0002", "NUMERO": "9"}, "geometry": {"type": "Polygon", "coordinates": [[[7.5565999999999995, 44.395], [7.55687, 44.395], [7.55687, 44.39518], [7.5565999999999995, 44.39518], [7.5565999999999995, 44.395]]]}}, {"type": "Feature", "properties": {"FOGLIO": "0002", "NUMERO": "10"}, "geometry": {"type": "Polygon", "coordinates": [[[7.5569, 44.395], [7.55717, 44.395], [7.55717, 44.39518], [7.5569, 44.39518], [7.5569, 44.395]]]}}, {"type": "Feature", "properties": {"FOGLIO": "0002", "NUMERO": "11"}, "geometry": {"type": "Polygon", "coordinates": [[[7.5542, 44.3952], [7.55447, 44.3952], [7.55447, 44.39538], [7.5542, 44.39538], [7.5542, 44.3952]]]}}, {"type": "Feature", "properties": {"FOGLIO": "0002", "NUMERO": "12"}, "geometry": {"type": "Polygon", "coordinates": [[[7.5545, 44.3952], [7.55477, 44.3952], [7.55477, 44.39538], [7.5545, 44.39538], [7.5545, 44.3952]]]}}, {"type": "Feature", "properties": {"FOGLIO": "0002", "NUMERO": "13"}, "geometry": {"type": "Polygon", "coordinates": [[[7.5548, 44.3952], [7.555070000000001, 44.3952], [7.555070000000001, 44.39538], [7.5548, 44.39538], [7.5548, 44.3952]]]}}, {"type": "Feature", "properties": {"FOGLIO": "0002", "NUMERO": "14"}, "geometry": {"type": "Polygon", "coordinates": [[[7.5550999999999995, 44.3952], [7.55537, 44.3952], [7.55537, 44.39538], [7.5550999999999995, 44.39538], [7.5550999999999995, 44.3952]]]}}, {"type": "Feature", "properties": {"FOGLIO": "0002", "NUMERO": "15"}, "geometry": {"type": "Polygon", "coordinates": [[[7.5554, 44.3952], [7.55567, 44.3952], [7.55567, 44.39538], [7.5554, 44.39538], [7.5554, 44.3952]]]}}, {"type": "Feature", "properties": {"FOGLIO": "0002", "NUMERO": "16"}, "geometry": {"type": "Polygon", "coordinates": [[[7.5557, 44.3952], [7.55597, 44.3952], [7.55597, 44.39538], [7.5557, 44.39538], [7.5557, 44.3952]]]}}, {"type": "Feature", "properties": {"FOGLIO": "0002", "NUMERO": "17"}, "geometry": {"type": "Polygon", "coordinates": [[[7.556, 44.3952], [7.5562700000000005, 44.3952], [7.5562700000000005, 44.39538], [7.556, 44.39538], [7.556, 44.3952]]]}}, {"type": "Feature", "properties": {"FOGLIO": "0002", "NUMERO": "18"}, "geometry": {"type": "Polygon", "coordinates": [[[7.5563, 44.3952], [7.556570000000001, 44.3952], [7.556570000000001, 44.39538], [7.5563, 44.39538], [7.5563, 44.3952]]]}}, {"type": "Feature", "properties": {"FOGLIO": "0002", "NUMERO": "19"}, "geometry": {"type": "Polygon", "coordinates": [[[7.5565999999999995, 44.3952], [7.55687, 44.3952], [7.55687, 44.39538], [7.5565999999999995, 44.39538], [7.5565999999999995, 44.3952]]]}}, {"type": "Feature", "properties": {"FOGLIO": "0002", "NUMERO": "20"}, "geometry": {"type": "Polygon", "coordinates": [[[7.5569, 44.3952], [7.55717, 44.3952], [7.55717, 44.39538], [7.5569, 44.39538], [7.5569, 44.3952]]]}}, {"type": "Feature", "properties": {"FOGLIO": "0002", "NUMERO": "21"}, "geometry": {"type": "Polygon", "coordinates": [[[7.5542, 44.3954], [7.55447, 44.3954], [7.55447, 44.39558], [7.5542, 44.39558], [7.5542, 44.3954]]]}}, {"type": "Feature", "properties": {"FOGLIO": "0002", "NUMERO": "22"}, "geometry": {"type": "Polygon", "coordinates": [[[7.5545, 44.3954], [7.55477, 44.3954], [7.55477, 44.39558], [7.5545, 44.39558], [7.5545, 44.3954]]]}}, {"type": "Feature", "properties": {"FOGLIO": "0002", "NUMERO": "23"}, "geometry": {"type": "Polygon", "coordinates": [[[7.5548, 44.3954], [7.555070000000001, 44.3954], [7.555070000000001, 44.39558], [7.5548, 44.39558], [7.5548, 44.3954]]]}}, {"type": "Feature", "properties": {"FOGLIO": "0002", "NUMERO": "24"}, "geometry": {"type": "Polygon", "coordinates": [[[7.5550999999999995, 44.3954], [7.55537, 44.3954], [7.55537, 44.39558], [7.5550999999999995, 44.39558], [7.5550999999999995, 44.3954]]]}}, {"type": "Feature", "properties": {"FOGLIO": "0002", "NUMERO": "25"}, "geometry": {"type": "Polygon", "coordinates": [[[7.5554, 44.3954], [7.55567, 44.3954], [7.55567, 44.39558], [7.5554, 44.39558], [7.5554, 44.3954]]]}}, {"type": "Feature", "properties": {"FOGLIO": "0002", "NUMERO": "26"}, "geometry": {"type": "Polygon", "coordinates": [[[7.5557, 44.3954], [7.55597, 44.3954], [7.55597, 44.39558], [7.5557, 44.39558], [7.5557, 44.3954]]]}}, {"type": "Feature", "properties": {"FOGLIO": "0002", "NUMERO": "27"}, "geometry": {"type": "Polygon", "coordinates": [[[7.556, 44.3954], [7.5562700000000005, 44.3954], [7.5562700000000005, 44.39558], [7.556, 44.39558], [7.556, 44.3954]]]}}, {"type": "Feature", "properties": {"FOGLIO": "0002", "NUMERO": "28"}, "geometry": {"type": "Polygon", "coordinates": [[[7.5563, 44.3954], [7.556570000000001, 44.3954], [7.556570000000001, 44.39558], [7.5563, 44.39558], [7.5563, 44.3954]]]}}, {"type": "Feature", "properties": {"FOGLIO": "0002", "NUMERO": "29"}, "geometry": {"type": "Polygon", "coordinates": [[[7.5565999999999995, 44.3954], [7.55687, 44.3954], [7.55687, 44.39558], [7.5565999999999995, 44.39558], [7.5565999999999995, 44.3954]]]}}, {"type": "Feature", "properties": {"FOGLIO": "0002", "NUMERO": "30"}, "geometry": {"type": "Polygon", "coordinates": [[[7.5569, 44.3954], [7.55717, 44.3954], [7.55717, 44.39558], [7.5569, 44.39558], [7.5569, 44.3954]]]}}, {"type": "Feature", "properties": {"FOGLIO": "0002", "NUMERO": "31"}, "geometry": {"type": "Polygon", "coordinates": [[[7.5542, 44.3956], [7.55447, 44.3956], [7.55447, 44.39578], [7.5542, 44.39578], [7.5542, 44.3956]]]}}, {"type": "Feature", "properties": {"FOGLIO": "0002", "NUMERO": "32"}, "geometry": {"type": "Polygon", "coordinates": [[[7.5545, 44.3956], [7.55477, 44.3956], [7.55477, 44.39578], [7.5545, 44.39578], [7.5545, 44.3956]]]}}, {"type": "Feature", "properties": {"FOGLIO": "0002", "NUMERO": "33"}, "geometry": {"type": "Polygon", "coordinates": [[[7.5548, 44.3956], [7.555070000000001, 44.3956], [7.555070000000001, 44.39578], [7.5548, 44.39578], [7.5548, 44.3956]]]}}, {"type": "Feature", "properties": {"FOGLIO": "0002", "NUMERO": "34"}, "geometry": {"type": "Polygon", "coordinates": [[[7.5550999999999995, 44.3956], [7.55537, 44.3956], [7.55537, 44.39578], [7.5550999999999995, 44.39578], [7.5550999999999995, 44.3956]]]}}, {"type": "Feature", "properties": {"FOGLIO": "0002", "NUMERO": "35"}, "geometry": {"type": "Polygon", "coordinates": [[[7.5554, 44.3956], [7.55567, 44.3956], [7.55567, 44.39578], [7.5554, 44.39578], [7.5554, 44.3956]]]}}, {"type": "Feature", "properties": {"FOGLIO": "0002", "NUMERO": "36"}, "geometry": {"type": "Polygon", "coordinates": [[[7.5557, 44.3956], [7.55597, 44.3956], [7.55597, 44.39578], [7.5557, 44.39578], [7.5557, 44.3956]]]}}, {"type": "Feature", "properties": {"FOGLIO": "0002", "NUMERO": "37"}, "geometry": {"type": "Polygon", "coordinates": [[[7.556, 44.3956], [7.5562700000000005, 44.3956], [7.5562700000000005, 44.39578], [7.556, 44.39578], [7.556, 44.3956]]]}}, {"type": "Feature", "properties": {"FOGLIO": "0002", "NUMERO": "38"}, "geometry": {"type": "Polygon", "coordinates": [[[7.5563, 44.3956], [7.556570000000001, 44.3956], [7.556570000000001, 44.39578], [7.5563, 44.39578], [7.5563, 44.3956]]]}}, {"type": "Feature", "properties": {"FOGLIO": "0002", "NUMERO": "39"}, "geometry": {"type": "Polygon", "coordinates": [[[7.5565999999999995, 44.3956], [7.55687, 44.3956], [7.55687, 44.39578], [7.5565999999999995, 44.39578], [7.5565999999999995, 44.3956]]]}}, {"type": "Feature", "properties": {"FOGLIO": "0002", "NUMERO": "40"}, "geometry": {"type": "Polygon", "coordinates": [[[7.5569, 44.3956], [7.55717, 44.3956], [7.55717, 44.39578], [7.5569, 44.39578], [7.5569, 44.3956]]]}}, {"type": "Feature", "properties": {"FOGLIO": "0002", "NUMERO": "41"}, "geometry": {"type": "Polygon", "coordinates": [[[7.5542, 44.3958], [7.55447, 44.3958], [7.55447, 44.39598], [7.5542, 44.39598], [7.5542, 44.3958]]]}}, {"type": "Feature", "properties": {"FOGLIO": "0002", "NUMERO": "42"}, "geometry": {"type": "Polygon", "coordinates": [[[7.5545, 44.3958], [7.55477, 44.3958], [7.55477, 44.39598], [7.5545, 44.39598], [7.5545, 44.3958]]]}}, {"type": "Feature", "properties": {"FOGLIO": "0002", "NUMERO": "43"}, "geometry": {"type": "Polygon", "coordinates": [[[7.5548, 44.3958], [7.555070000000001, 44.3958], [7.555070000000001, 44.39598], [7.5548, 44.39598], [7.5548, 44.3958]]]}}, {"type": "Feature", "properties": {"FOGLIO": "0002", "NUMERO": "44"}, "geometry": {"type": "Polygon", "coordinates": [[[7.5550999999999995, 44.3958], [7.55537, 44.3958], [7.55537, 44.39598], [7.5550999999999995, 44.39598], [7.5550999999999995, 44.3958]]]}}, {"type": "Feature", "properties": {"FOGLIO": "0002", "NUMERO": "45"}, "geometry": {"type": "Polygon", "coordinates": [[[7.5554, 44.3958], [7.55567, 44.3958], [7.55567, 44.39598], [7.5554, 44.39598], [7.5554, 44.3958]]]}}, {"type": "Feature", "properties": {"FOGLIO": "0002", "NUMERO": "46"}, "geometry": {"type": "Polygon", "coordinates": [[[7.5557, 44.3958], [7.55597, 44.3958], [7.55597, 44.39598], [7.5557, 44.39598], [7.5557, 44.3958]]]}}, {"type": "Feature", "properties": {"FOGLIO": "0002", "NUMERO": "47"}, "geometry": {"type": "Polygon", "coordinates": [[[7.556, 44.3958], [7.5562700000000005, 44.3958], [7.5562700000000005, 44.39598], [7.556, 44.39598], [7.556, 44.3958]]]}}, {"type": "Feature", "properties": {"FOGLIO": "0002", "NUMERO": "48"}, "geometry": {"type": "Polygon", "coordinates": [[[7.5563, 44.3958], [7.556570000000001, 44.3958], [7.556570000000001, 44.39598], [7.5563, 44.39598], [7.5563, 44.3958]]]}}, {"type": "Feature", "properties": {"FOGLIO": "0002", "NUMERO": "49"}, "geometry": {"type": "Polygon", "coordinates": [[[7.5565999999999995, 44.3958], [7.55687, 44.3958], [7.55687, 44.39598], [7.5565999999999995, 44.39598], [7.5565999999999995, 44.3958]]]}}, {"type": "Feature", "properties": {"FOGLIO": "0002", "NUMERO": "50"}, "geometry": {"type": "Polygon", "coordinates": [[[7.5569, 44.3958], [7.55717, 44.3958], [7.55717, 44.39598], [7.5569, 44.39598], [7.5569, 44.3958]]]}}, {"type": "Feature", "properties": {"FOGLIO": "0003", "NUMERO": "1"}, "geometry": {"type": "Polygon", "coordinates": [[[7.5584, 44.395], [7.55867, 44.395], [7.55867, 44.39518], [7.5584, 44.39518], [7.5584, 44.395]]]}}, {"type": "Feature", "properties": {"FOGLIO": "0003", "NUMERO": "2"}, "geometry": {"type": "Polygon", "coordinates": [[[7.5587, 44.395], [7.55897, 44.395], [7.55897, 44.39518], [7.5587, 44.39518], [7.5587, 44.395]]]}}, {"type": "Feature", "properties": {"FOGLIO": "0003", "NUMERO": "3"}, "geometry": {"type": "Polygon", "coordinates": [[[7.559, 44.395], [7.559270000000001, 44.395], [7.559270000000001, 44.39518], [7.559, 44.39518], [7.559, 44.395]]]}}, {"type": "Feature", "properties": {"FOGLIO": "0003", "NUMERO": "4"}, "geometry": {"type": "Polygon", "coordinates": [[[7.5592999999999995, 44.395], [7.55957, 44.395], [7.55957, 44.39518], [7.5592999999999995, 44.39518], [7.5592999999999995, 44.395]]]}}, {"type": "Feature", "properties": {"FOGLIO": "0003", "NUMERO": "5"}, "geometry": {"type": "Polygon", "coordinates": [[[7.5596, 44.395], [7.55987, 44.395], [7.55987, 44.39518], [7.5596, 44.39518], [7.5596, 44.395]]]}}, {"type": "Feature", "properties": {"FOGLIO": "0003", "NUMERO": "6"}, "geometry": {"type": "Polygon", "coordinates": [[[7.5599, 44.395], [7.56017, 44.395], [7.56017, 44.39518], [7.5599, 44.39518], [7.5599, 44.395]]]}}, {"type": "Feature", "properties": {"FOGLIO": "0003", "NUMERO": "7"}, "geometry": {"type": "Polygon", "coordinates": [[[7.5602, 44.395], [7.5604700000000005, 44.395], [7.5604700000000005, 44.39518], [7.5602, 44.39518], [7.5602, 44.395]]]}}, {"type": "Feature", "properties": {"FOGLIO": "0003", "NUMERO": "8"}, "geometry": {"type": "Polygon", "coordinates": [[[7.5605, 44.395], [7.560770000000001, 44.395], [7.560770000000001, 44.39518], [7.5605, 44.39518], [7.5605, 44.395]]]}}, {"type": "Feature", "properties": {"FOGLIO": "0003", "NUMERO": "9"}, "geometry": {"type": "Polygon", "coordinates": [[[7.5607999999999995, 44.395], [7.56107, 44.395], [7.56107, 44.39518], [7.5607999999999995, 44.39518], [7.5607999999999995, 44.395]]]}}, {"type": "Feature", "properties": {"FOGLIO": "0003", "NUMERO": "10"}, "geometry": {"type": "Polygon", "coordinates": [[[7.5611, 44.395], [7.56137, 44.395], [7.56137, 44.39518], [7.5611, 44.39518], [7.5611, 44.395]]]}}, {"type": "Feature", "properties": {"FOGLIO": "0003", "NUMERO": "11"}, "geometry": {"type": "Polygon", "coordinates": [[[7.5584, 44.3952], [7.55867, 44.3952], [7.55867, 44.39538], [7.5584, 44.39538], [7.5584, 44.3952]]]}}, {"type": "Feature", "properties": {"FOGLIO": "0003", "NUMERO": "12"}, "geometry": {"type": "Polygon", "coordinates": [[[7.5587, 44.3952], [7.55897, 44.3952], [7.55897, 44.39538], [7.5587, 44.39538], [7.5587, 44.3952]]]}}, {"type": "Feature", "properties": {"FOGLIO": "0003", "NUMERO": "13"}, "geometry": {"type": "Polygon", "coordinates": [[[7.559, 44.3952], [7.559270000000001, 44.3952], [7.559270000000001, 44.39538], [7.559, 44.39538], [7.559, 44.3952]]]}}, {"type": "Feature", "properties": {"FOGLIO": "0003", "NUMERO": "14"}, "geometry": {"type": "Polygon", "coordinates": [[[7.5592999999999995, 44.3952], [7.55957, 44.3952], [7.55957, 44.39538], [7.5592999999999995, 44.39538], [7.5592999999999995, 44.3952]]]}}, {"type": "Feature", "properties": {"FOGLIO": "0003", "NUMERO": "15"}, "geometry": {"type": "Polygon", "coordinates": [[[7.5596, 44.3952], [7.55987, 44.3952], [7.55987, 44.39538], [7.5596, 44.39538], [7.5596, 44.3952]]]}}, {"type": "Feature", "properties": {"FOGLIO": "0003", "NUMERO": "16"}, "geometry": {"type": "Polygon", "coordinates": [[[7.5599, 44.3952], [7.56017, 44.3952], [7.56017, 44.39538], [7.5599, 44.39538], [7.5599, 44.3952]]]}}, {"type": "Feature", "properties": {"FOGLIO": "0003", "NUMERO": "17"}, "geometry": {"type": "Polygon", "coordinates": [[[7.5602, 44.3952], [7.5604700000000005, 44.3952], [7.5604700000000005, 44.39538], [7.5602, 44.39538], [7.5602, 44.3952]]]}}, {"type": "Feature", "properties": {"FOGLIO": "0003", "NUMERO": "18"}, "geometry": {"type": "Polygon", "coordinates": [[[7.5605, 44.3952], [7.560770000000001, 44.3952], [7.560770000000001, 44.39538], [7.5605, 44.39538], [7.5605, 44.3952]]]}}, {"type": "Feature", "properties": {"FOGLIO": "0003", "NUMERO": "19"}, "geometry": {"type": "Polygon", "coordinates": [[[7.5607999999999995, 44.3952], [7.56107, 44.3952], [7.56107, 44.39538], [7.5607999999999995, 44.39538], [7.5607999999999995, 44.3952]]]}}, {"type": "Feature", "properties": {"FOGLIO": "0003", "NUMERO": "20"}, "geometry": {"type": "Polygon", "coordinates": [[[7.5611, 44.3952], [7.56137, 44.3952], [7.56137, 44.39538], [7.5611, 44.39538], [7.5611, 44.3952]]]}}, {"type": "Feature", "properties": {"FOGLIO": "0003", "NUMERO": "21"}, "geometry": {"type": "Polygon", "coordinates": [[[7.5584, 44.3954], [7.55867, 44.3954], [7.55867, 44.39558], [7.5584, 44.39558], [7.5584, 44.3954]]]}}, {"type": "Feature", "properties": {"FOGLIO": "0003", "NUMERO": "22"}, "geometry": {"type": "Polygon", "coordinates": [[[7.5587, 44.3954], [7.55897, 44.3954], [7.55897, 44.39558], [7.5587, 44.39558], [7.5587, 44.3954]]]}}, {"type": "Feature", "properties": {"FOGLIO": "0003", "NUMERO": "23"}, "geometry": {"type": "Polygon", "coordinates": [[[7.559, 44.3954], [7.559270000000001, 44.3954], [7.559270000000001, 44.39558], [7.559, 44.39558], [7.559, 44.3954]]]}}, {"type": "Feature", "properties": {"FOGLIO": "0003", "NUMERO": "24"}, "geometry": {"type": "Polygon", "coordinates": [[[7.5592999999999995, 44.3954], [7.55957, 44.3954], [7.55957, 44.39558], [7.5592999999999995, 44.39558], [7.5592999999999995, 44.3954]]]}}, {"type": "Feature", "properties": {"FOGLIO": "0003", "NUMERO": "25"}, "geometry": {"type": "Polygon", "coordinates": [[[7.5596, 44.3954], [7.55987, 44.3954], [7.55987, 44.39558], [7.5596, 44.39558], [7.5596, 44.3954]]]}}, {"type": "Feature", "properties": {"FOGLIO": "0003", "NUMERO": "26"}, "geometry": {"type": "Polygon", "coordinates": [[[7.5599, 44.3954], [7.56017, 44.3954], [7.56017, 44.39558], [7.5599, 44.39558], [7.5599, 44.3954]]]}}, {"type": "Feature", "properties": {"FOGLIO": "0003", "NUMERO": "27"}, "geometry": {"type": "Polygon", "coordinates": [[[7.5602, 44.3954], [7.5604700000000005, 44.3954], [7.5604700000000005, 44.39558], [7.5602, 44.39558], [7.5602, 44.3954]]]}}, {"type": "Feature", "properties": {"FOGLIO": "0003", "NUMERO": "28"}, "geometry": {"type": "Polygon", "coordinates": [[[7.5605, 44.3954], [7.560770000000001, 44.3954], [7.560770000000001, 44.39558], [7.5605, 44.39558], [7.5605, 44.3954]]]}}, {"type": "Feature", "properties": {"FOGLIO": "0003", "NUMERO": "29"}, "geometry": {"type": "Polygon", "coordinates": [[[7.5607999999999995, 44.3954], [7.56107, 44.3954], [7.56107, 44.39558], [7.5607999999999995, 44.39558], [7.5607999999999995, 44.3954]]]}}, {"type": "Feature", "properties": {"FOGLIO": "0003", "NUMERO": "30"}, "geometry": {"type": "Polygon", "coordinates": [[[7.5611, 44.3954], [7.56137, 44.3954], [7.56137, 44.39558], [7.5611, 44.39558], [7.5611, 44.3954]]]}}, {"type": "Feature", "properties": {"FOGLIO": "0003", "NUMERO": "31"}, "geometry": {"type": "Polygon", "coordinates": [[[7.5584, 44.3956], [7.55867, 44.3956], [7.55867, 44.39578], [7.5584, 44.39578], [7.5584, 44.3956]]]}}, {"type": "Feature", "properties": {"FOGLIO": "0003", "NUMERO": "32"}, "geometry": {"type": "Polygon", "coordinates": [[[7.5587, 44.3956], [7.55897, 44.3956], [7.55897, 44.39578], [7.5587, 44.39578], [7.5587, 44.3956]]]}}, {"type": "Feature", "properties": {"FOGLIO": "0003", "NUMERO": "33"}, "geometry": {"type": "Polygon", "coordinates": [[[7.559, 44.3956], [7.559270000000001, 44.3956], [7.559270000000001, 44.39578], [7.559, 44.39578], [7.559, 44.3956]]]}}, {"type": "Feature", "properties": {"FOGLIO": "0003", "NUMERO": "34"}, "geometry": {"type": "Polygon", "coordinates": [[[7.5592999999999995, 44.3956], [7.55957, 44.3956], [7.55957, 44.39578], [7.5592999999999995, 44.39578], [7.5592999999999995, 44.3956]]]}}, {"type": "Feature", "properties": {"FOGLIO": "0003", "NUMERO": "35"}, "geometry": {"type": "Polygon", "coordinates": [[[7.5596, 44.3956], [7.55987, 44.3956], [7.55987, 44.39578], [7.5596, 44.39578], [7.5596, 44.3956]]]}}, {"type": "Feature", "properties": {"FOGLIO": "0003", "NUMERO": "36"}, "geometry": {"type": "Polygon", "coordinates": [[[7.5599, 44.3956], [7.56017, 44.3956], [7.56017, 44.39578], [7.5599, 44.39578], [7.5599, 44.3956]]]}}, {"type": "Feature", "properties": {"FOGLIO": "0003", "NUMERO": "37"}, "geometry": {"type": "Polygon", "coordinates": [[[7.5602, 44.3956], [7.5604700000000005, 44.3956], [7.5604700000000005, 44.39578], [7.5602, 44.39578], [7.5602, 44.3956]]]}}, {"type": "Feature", "properties": {"FOGLIO": "0003", "NUMERO": "38"}, "geometry": {"type": "Polygon", "coordinates": [[[7.5605, 44.3956], [7.560770000000001, 44.3956], [7.560770000000001, 44.39578], [7.5605, 44.39578], [7.5605, 44.3956]]]}}, {"type": "Feature", "properties": {"FOGLIO": "0003", "NUMERO": "39"}, "geometry": {"type": "Polygon", "coordinates": [[[7.5607999999999995, 44.3956], [7.56107, 44.3956], [7.56107, 44.39578], [7.5607999999999995, 44.39578], [7.5607999999999995, 44.3956]]]}}, {"type": "Feature", "properties": {"FOGLIO": "0003", "NUMERO": "40"}, "geometry": {"type": "Polygon", "coordinates": [[[7.5611, 44.3956], [7.56137, 44.3956], [7.56137, 44.39578], [7.5611, 44.39578], [7.5611, 44.3956]]]}}, {"type": "Feature", "properties": {"FOGLIO": "0003", "NUMERO": "41"}, "geometry": {"type": "Polygon", "coordinates": [[[7.5584, 44.3958], [7.55867, 44.3958], [7.55867, 44.39598], [7.5584, 44.39598], [7.5584, 44.3958]]]}}, {"type": "Feature", "properties": {"FOGLIO": "0003", "NUMERO": "42"}, "geometry": {"type": "Polygon", "coordinates": [[[7.5587, 44.3958], [7.55897, 44.3958], [7.55897, 44.39598], [7.5587, 44.39598], [7.5587, 44.3958]]]}}, {"type": "Feature", "properties": {"FOGLIO": "0003", "NUMERO": "43"}, "geometry": {"type": "Polygon", "coordinates": [[[7.559, 44.3958], [7.559270000000001, 44.3958], [7.559270000000001, 44.39598], [7.559, 44.39598], [7.559, 44.3958]]]}}, {"type": "Feature", "properties": {"FOGLIO": "0003", "NUMERO": "44"}, "geometry": {"type": "Polygon", "coordinates": [[[7.5592999999999995, 44.3958], [7.55957, 44.3958], [7.55957, 44.39598], [7.5592999999999995, 44.39598], [7.5592999999999995, 44.3958]]]}}, {"type": "Feature", "properties": {"FOGLIO": "0003", "NUMERO": "45"}, "geometry": {"type": "Polygon", "coordinates": [[[7.5596, 44.3958], [7.55987, 44.3958], [7.55987, 44.39598], [7.5596, 44.39598], [7.5596, 44.3958]]]}}, {"type": "Feature", "properties": {"FOGLIO": "0003", "NUMERO": "46"}, "geometry": {"type": "Polygon", "coordinates": [[[7.5599, 44.3958], [7.56017, 44.3958], [7.56017, 44.39598], [7.5599, 44.39598], [7.5599, 44.3958]]]}}, {"type": "Feature", "properties": {"FOGLIO": "0003", "NUMERO": "47"}, "geometry": {"type": "Polygon", "coordinates": [[[7.5602, 44.3958], [7.5604700000000005, 44.3958], [7.5604700000000005, 44.39598], [7.5602, 44.39598], [7.5602, 44.3958]]]}}, {"type": "Feature", "properties": {"FOGLIO": "0003", "NUMERO": "48"}, "geometry": {"type": "Polygon", "coordinates": [[[7.5605, 44.3958], [7.560770000000001, 44.3958], [7.560770000000001, 44.39598], [7.5605, 44.39598], [7.5605, 44.3958]]]}}, {"type": "Feature", "properties": {"FOGLIO": "0003", "NUMERO": "49"}, "geometry": {"type": "Polygon", "coordinates": [[[7.5607999999999995, 44.3958], [7.56107, 44.3958], [7.56107, 44.39598], [7.5607999999999995, 44.39598], [7.5607999999999995, 44.3958]]]}}, {"type": "Feature", "properties": {"FOGLIO": "0003", "NUMERO": "50"}, "geometry": {"type": "Polygon", "coordinates": [[[7.5611, 44.3958], [7.56137, 44.3958], [7.56137, 44.39598], [7.5611, 44.39598], [7.5611, 44.3958]]]}}, {"type": "Feature", "properties": {"FOGLIO": "0004", "NUMERO": "1"}, "geometry": {"type": "Polygon", "coordinates": [[[7.55, 44.3964], [7.55027, 44.3964], [7.55027, 44.39658], [7.55, 44.39658], [7.55, 44.3964]]]}}, {"type": "Feature", "properties": {"FOGLIO": "0004", "NUMERO": "2"}, "geometry": {"type": "Polygon", "coordinates": [[[7.5503, 44.3964], [7.5505700000000004, 44.3964], [7.5505700000000004, 44.39658], [7.5503, 44.39658], [7.5503, 44.3964]]]}}, {"type": "Feature", "properties": {"FOGLIO": "0004", "NUMERO": "3"}, "geometry": {"type": "Polygon", "coordinates": [[[7.5506, 44.3964], [7.550870000000001, 44.3964], [7.550870000000001, 44.39658], [7.5506, 44.39658], [7.5506, 44.3964]]]}}, {"type": "Feature", "properties": {"FOGLIO": "0004", "NUMERO": "4"}, "geometry": {"type": "Polygon", "coordinates": [[[7.5508999999999995, 44.3964], [7.55117, 44.3964], [7.55117, 44.39658], [7.5508999999999995, 44.39658], [7.5508999999999995, 44.3964]]]}}, {"type": "Feature", "properties": {"FOGLIO": "0004", "NUMERO": "5"}, "geometry": {"type": "Polygon", "coordinates": [[[7.5512, 44.3964], [7.55147, 44.3964], [7.55147, 44.39658], [7.5512, 44.39658], [7.5512, 44.3964]]]}}, {"type": "Feature", "properties": {"FOGLIO": "0004", "NUMERO": "6"}, "geometry": {"type": "Polygon", "coordinates": [[[7.5515, 44.3964], [7.55177, 44.3964], [7.55177, 44.39658], [7.5515, 44.39658], [7.5515, 44.3964]]]}}, {"type": "Feature", "properties": {"FOGLIO": "0004", "NUMERO": "7"}, "geometry": {"type": "Polygon", "coordinates": [[[7.5518, 44.3964], [7.5520700000000005, 44.3964], [7.5520700000000005, 44.39658], [7.5518, 44.39658], [7.5518, 44.3964]]]}}, {"type": "Feature", "properties": {"FOGLIO": "0004", "NUMERO": "8"}, "geometry": {"type": "Polygon", "coordinates": [[[7.5521, 44.3964], [7.552370000000001, 44.3964], [7.552370000000001, 44.39658], [7.5521, 44.39658], [7.5521, 44.3964]]]}}, {"type": "Feature", "properties": {"FOGLIO": "0004", "NUMERO": "9"}, "geometry": {"type": "Polygon", "coordinates": [[[7.5524, 44.3964], [7.55267, 44.3964], [7.55267, 44.39658], [7.5524, 44.39658], [7.5524, 44.3964]]]}}, {"type": "Feature", "properties": {"FOGLIO": "0004", "NUMERO": "10"}, "geometry": {"type": "Polygon", "coordinates": [[[7.5527, 44.3964], [7.55297, 44.3964], [7.55297, 44.39658], [7.5527, 44.39658], [7.5527, 44.3964]]]}}, {"type": "Feature", "properties": {"FOGLIO": "0004", "NUMERO": "11"}, "geometry": {"type": "Polygon", "coordinates": [[[7.55, 44.3966], [7.55027, 44.3966], [7.55027, 44.39678], [7.55, 44.39678], [7.55, 44.3966]]]}}, {"type": "Feature", "properties": {"FOGLIO": "0004", "NUMERO": "12"}, "geometry": {"type": "Polygon", "coordinates": [[[7.5503, 44.3966], [7.5505700000000004, 44.3966], [7.5505700000000004, 44.39678], [7.5503, 44.39678], [7.5503, 44.3966]]]}}, {"type": "Feature", "properties": {"FOGLIO": "0004", "NUMERO": "13"}, "geometry": {"type": "Polygon", "coordinates": [[[7.5506, 44.3966], [7.550870000000001, 44.3966], [7.550870000000001, 44.39678], [7.5506, 44.39678], [7.5506, 44.3966]]]}}, {"type": "Feature", "properties": {"FOGLIO": "0004", "NUMERO": "14"}, "geometry": {"type": "Polygon", "coordinates": [[[7.5508999999999995, 44.3966], [7.55117, 44.3966], [7.55117, 44.39678], [7.5508999999999995, 44.39678], [7.5508999999999995, 44.3966]]]}}, {"type": "Feature", "properties": {"FOGLIO": "0004", "NUMERO": "15"}, "geometry": {"type": "Polygon", "coordinates": [[[7.5512, 44.3966], [7.55147, 44.3966], [7.55147, 44.39678], [7.5512, 44.39678], [7.5512, 44.3966]]]}}, {"type": "Feature", "properties": {"FOGLIO": "0004", "NUMERO": "16"}, "geometry": {"type": "Polygon", "coordinates": [[[7.5515, 44.3966], [7.55177, 44.3966], [7.55177, 44.39678], [7.5515, 44.39678], [7.5515, 44.3966]]]}}, {"type": "Feature", "properties": {"FOGLIO": "0004", "NUMERO": "17"}, "geometry": {"type": "Polygon", "coordinates": [[[7.5518, 44.3966], [7.5520700000000005, 44.3966], [7.5520700000000005, 44.39678], [7.5518, 44.39678], [7.5518, 44.3966]]]}}, {"type": "Feature", "properties": {"FOGLIO": "0004", "NUMERO": "18"}, "geometry": {"type": "Polygon", "coordinates": [[[7.5521, 44.3966], [7.552370000000001, 44.3966], [7.552370000000001, 44.39678], [7.5521, 44.39678], [7.5521, 44.3966]]]}}, {"type": "Feature", "properties": {"FOGLIO": "0004", "NUMERO": "19"}, "geometry": {"type": "Polygon", "coordinates": [[[7.5524, 44.3966], [7.55267, 44.3966], [7.55267, 44.39678], [7.5524, 44.39678], [7.5524, 44.3966]]]}}, {"type": "Feature", "properties": {"FOGLIO": "0004", "NUMERO": "20"}, "geometry": {"type": "Polygon", "coordinates": [[[7.5527, 44.3966], [7.55297, 44.3966], [7.55297, 44.39678], [7.5527, 44.39678], [7.5527, 44.3966]]]}}, {"type": "Feature", "properties": {"FOGLIO": "0004", "NUMERO": "21"}, "geometry": {"type": "Polygon", "coordinates": [[[7.55, 44.3968], [7.55027, 44.3968], [7.55027, 44.39698], [7.55, 44.39698], [7.55, 44.3968]]]}}, {"type": "Feature", "properties": {"FOGLIO": "0004", "NUMERO": "22"}, "geometry": {"type": "Polygon", "coordinates": [[[7.5503, 44.3968], [7.5505700000000004, 44.3968], [7.5505700000000004, 44.39698], [7.5503, 44.39698], [7.5503, 44.3968]]]}}, {"type": "Feature", "properties": {"FOGLIO": "0004", "NUMERO": "23"}, "geometry": {"type": "Polygon", "coordinates": [[[7.5506, 44.3968], [7.550870000000001, 44.3968], [7.550870000000001, 44.39698], [7.5506, 44.39698], [7.5506, 44.3968]]]}}, {"type": "Feature", "properties": {"FOGLIO": "0004", "NUMERO": "24"}, "geometry": {"type": "Polygon", "coordinates": [[[7.5508999999999995, 44.3968], [7.55117, 44.3968], [7.55117, 44.39698], [7.5508999999999995, 44.39698], [7.5508999999999995, 44.3968]]]}}, {"type": "Feature", "properties": {"FOGLIO": "0004", "NUMERO": "25"}, "geometry": {"type": "Polygon", "coordinates": [[[7.5512, 44.3968], [7.55147, 44.3968], [7.55147, 44.39698], [7.5512, 44.39698], [7.5512, 44.3968]]]}}, {"type": "Feature", "properties": {"FOGLIO": "0004", "NUMERO": "26"}, "geometry": {"type": "Polygon", "coordinates": [[[7.5515, 44.3968], [7.55177, 44.3968], [7.55177, 44.39698], [7.5515, 44.39698], [7.5515, 44.3968]]]}}, {"type": "Feature", "properties": {"FOGLIO": "0004", "NUMERO": "27"}, "geometry": {"type": "Polygon", "coordinates": [[[7.5518, 44.3968], [7.5520700000000005, 44.3968], [7.5520700000000005, 44.39698], [7.5518, 44.39698], [7.5518, 44.3968]]]}}, {"type": "Feature", "properties": {"FOGLIO": "0004", "NUMERO": "28"}, "geometry": {"type": "Polygon", "coordinates": [[[7.5521, 44.3968], [7.552370000000001, 44.3968], [7.552370000000001, 44.39698], [7.5521, 44.39698], [7.5521, 44.3968]]]}}, {"type": "Feature", "properties": {"FOGLIO": "0004", "NUMERO": "29"}, "geometry": {"type": "Polygon", "coordinates": [[[7.5524, 44.3968], [7.55267, 44.3968], [7.55267, 44.39698], [7.5524, 44.39698], [7.5524, 44.3968]]]}}, {"type": "Feature", "properties": {"FOGLIO": "0004", "NUMERO": "30"}, "geometry": {"type": "Polygon", "coordinates": [[[7.5527, 44.3968], [7.55297, 44.3968], [7.55297, 44.39698], [7.5527, 44.39698], [7.5527, 44.3968]]]}}, {"type": "Feature", "properties": {"FOGLIO": "0004", "NUMERO": "31"}, "geometry": {"type": "Polygon", "coordinates": [[[7.55, 44.397], [7.55027, 44.397], [7.55027, 44.39718], [7.55, 44.39718], [7.55, 44.397]]]}}, {"type": "Feature", "properties": {"FOGLIO": "0004", "NUMERO": "32"}, "geometry": {"type": "Polygon", "coordinates": [[[7.5503, 44.397], [7.5505700000000004, 44.397], [7.5505700000000004, 44.39718], [7.5503, 44.39718], [7.5503, 44.397]]]}}, {"type": "Feature", "properties": {"FOGLIO": "0004", "NUMERO": "33"}, "geometry": {"type": "Polygon", "coordinates": [[[7.5506, 44.397], [7.550870000000001, 44.397], [7.550870000000001, 44.39718], [7.5506, 44.39718], [7.5506, 44.397]]]}}, {"type": "Feature", "properties": {"FOGLIO": "0004", "NUMERO": "34"}, "geometry": {"type": "Polygon", "coordinates": [[[7.5508999999999995, 44.397], [7.55117, 44.397], [7.55117, 44.39718], [7.5508999999999995, 44.39718], [7.5508999999999995, 44.397]]]}}, {"type": "Feature", "properties": {"FOGLIO": "0004", "NUMERO": "35"}, "geometry": {"type": "Polygon", "coordinates": [[[7.5512, 44.397], [7.55147, 44.397], [7.55147, 44.39718], [7.5512, 44.39718], [7.5512, 44.397]]]}}, {"type": "Feature", "properties": {"FOGLIO": "0004", "NUMERO": "36"}, "geometry": {"type": "Polygon", "coordinates": [[[7.5515, 44.397], [7.55177, 44.397], [7.55177, 44.39718], [7.5515, 44.39718], [7.5515, 44.397]]]}}, {"type": "Feature", "properties": {"FOGLIO": "0004", "NUMERO": "37"}, "geometry": {"type": "Polygon", "coordinates": [[[7.5518, 44.397], [7.5520700000000005, 44.397], [7.5520700000000005, 44.39718], [7.5518, 44.39718], [7.5518, 44.397]]]}}, {"type": "Feature", "properties": {"FOGLIO": "0004", "NUMERO": "38"}, "geometry": {"type": "Polygon", "coordinates": [[[7.5521, 44.397], [7.552370000000001, 44.397], [7.552370000000001, 44.39718], [7.5521, 44.39718], [7.5521, 44.397]]]}}, {"type": "Feature", "properties": {"FOGLIO": "0004", "NUMERO": "39"}, "geometry": {"type": "Polygon", "coordinates": [[[7.5524, 44.397], [7.55267, 44.397], [7.55267, 44.39718], [7.5524, 44.39718], [7.5524, 44.397]]]}}, {"type": "Feature", "properties": {"FOGLIO": "0004", "NUMERO": "40"}, "geometry": {"type": "Polygon", "coordinates": [[[7.5527, 44.397], [7.55297, 44.397], [7.55297, 44.39718], [7.5527, 44.39718], [7.5527, 44.397]]]}}, {"type": "Feature", "properties": {"FOGLIO": "0004", "NUMERO": "41"}, "geometry": {"type": "Polygon", "coordinates": [[[7.55, 44.3972], [7.55027, 44.3972], [7.55027, 44.39738], [7.55, 44.39738], [7.55, 44.3972]]]}}, {"type": "Feature", "properties": {"FOGLIO": "0004", "NUMERO": "42"}, "geometry": {"type": "Polygon", "coordinates": [[[7.5503, 44.3972], [7.5505700000000004, 44.3972], [7.5505700000000004, 44.39738], [7.5503, 44.39738], [7.5503, 44.3972]]]}}, {"type": "Feature", "properties": {"FOGLIO": "0004", "NUMERO": "43"}, "geometry": {"type": "Polygon", "coordinates": [[[7.5506, 44.3972], [7.550870000000001, 44.3972], [7.550870000000001, 44.39738], [7.5506, 44.39738], [7.5506, 44.3972]]]}}, {"type": "Feature", "properties": {"FOGLIO": "0004", "NUMERO": "44"}, "geometry": {"type": "Polygon", "coordinates": [[[7.5508999999999995, 44.3972], [7.55117, 44.3972], [7.55117, 44.39738], [7.5508999999999995, 44.39738], [7.5508999999999995, 44.3972]]]}}, {"type": "Feature", "properties": {"FOGLIO": "0004", "NUMERO": "45"}, "geometry": {"type": "Polygon", "coordinates": [[[7.5512, 44.3972], [7.55147, 44.3972], [7.55147, 44.39738], [7.5512, 44.39738], [7.5512, 44.3972]]]}}, {"type": "Feature", "properties": {"FOGLIO": "0004", "NUMERO": "46"}, "geometry": {"type": "Polygon", "coordinates": [[[7.5515, 44.3972], [7.55177, 44.3972], [7.55177, 44.39738], [7.5515, 44.39738], [7.5515, 44.3972]]]}}, {"type": "Feature", "properties": {"FOGLIO": "0004", "NUMERO": "47"}, "geometry": {"type": "Polygon", "coordinates": [[[7.5518, 44.3972], [7.5520700000000005, 44.3972], [7.5520700000000005, 44.39738], [7.5518, 44.39738], [7.5518, 44.3972]]]}}, {"type": "Feature", "properties": {"FOGLIO": "0004", "NUMERO": "48"}, "geometry": {"type": "Polygon", "coordinates": [[[7.5521, 44.3972], [7.552370000000001, 44.3972], [7.552370000000001, 44.39738], [7.5521, 44.39738], [7.5521, 44.3972]]]}}, {"type": "Feature", "properties": {"FOGLIO": "0004", "NUMERO": "49"}, "geometry": {"type": "Polygon", "coordinates": [[[7.5524, 44.3972], [7.55267, 44.3972], [7.55267, 44.39738], [7.5524, 44.39738], [7.5524, 44.3972]]]}}, {"type": "Feature", "properties": {"FOGLIO": "0004", "NUMERO": "50"}, "geometry": {"type": "Polygon", "coordinates": [[[7.5527, 44.3972], [7.55297, 44.3972], [7.55297, 44.39738], [7.5527, 44.39738], [7.5527, 44.3972]]]}}, {"type": "Feature", "properties": {"FOGLIO": "0005", "NUMERO": "1"}, "geometry": {"type": "Polygon", "coordinates": [[[7.5542, 44.3964], [7.55447, 44.3964], [7.55447, 44.39658], [7.5542, 44.39658], [7.5542, 44.3964]]]}}, {"type": "Feature", "properties": {"FOGLIO": "0005", "NUMERO": "2"}, "geometry": {"type": "Polygon", "coordinates": [[[7.5545, 44.3964], [7.55477, 44.3964], [7.55477, 44.39658], [7.5545, 44.39658], [7.5545, 44.3964]]]}}, {"type": "Feature", "properties": {"FOGLIO": "0005", "NUMERO": "3"}, "geometry": {"type": "Polygon", "coordinates": [[[7.5548, 44.3964], [7.555070000000001, 44.3964], [7.555070000000001, 44.39658], [7.5548, 44.39658], [7.5548, 44.3964]]]}}, {"type": "Feature", "properties": {"FOGLIO": "0005", "NUMERO": "4"}, "geometry": {"type": "Polygon", "coordinates": [[[7.5550999999999995, 44.3964], [7.55537, 44.3964], [7.55537, 44.39658], [7.5550999999999995, 44.39658], [7.5550999999999995, 44.3964]]]}}, {"type": "Feature", "properties": {"FOGLIO": "0005", "NUMERO": "5"}, "geometry": {"type": "Polygon", "coordinates": [[[7.5554, 44.3964], [7.55567, 44.3964], [7.55567, 44.39658], [7.5554, 44.39658], [7.5554, 44.3964]]]}}, {"type": "Feature", "properties": {"FOGLIO": "0005", "NUMERO": "6"}, "geometry": {"type": "Polygon", "coordinates": [[[7.5557, 44.3964], [7.55597, 44.3964], [7.55597, 44.39658], [7.5557, 44.39658], [7.5557, 44.3964]]]}}, {"type": "Feature", "properties": {"FOGLIO": "0005", "NUMERO": "7"}, "geometry": {"type": "Polygon", "coordinates": [[[7.556, 44.3964], [7.5562700000000005, 44.3964], [7.5562700000000005, 44.39658], [7.556, 44.39658], [7.556, 44.3964]]]}}, {"type": "Feature", "properties": {"FOGLIO": "0005", "NUMERO": "8"}, "geometry": {"type": "Polygon", "coordinates": [[[7.5563, 44.3964], [7.556570000000001, 44.3964], [7.556570000000001, 44.39658], [7.5563, 44.39658], [7.5563, 44.3964]]]}}, {"type": "Feature", "properties": {"FOGLIO": "0005", "NUMERO": "9"}, "geometry": {"type": "Polygon", "coordinates": [[[7.5565999999999995, 44.3964], [7.55687, 44.3964], [7.55687, 44.39658], [7.5565999999999995, 44.39658], [7.5565999999999995, 44.3964]]]}}, {"type": "Feature", "properties": {"FOGLIO": "0005", "NUMERO": "10"}, "geometry": {"type": "Polygon", "coordinates": [[[7.5569, 44.3964], [7.55717, 44.3964], [7.55717, 44.39658], [7.5569, 44.39658], [7.5569, 44.3964]]]}}, {"type": "Feature", "properties": {"FOGLIO": "0005", "NUMERO": "11"}, "geometry": {"type": "Polygon", "coordinates": [[[7.5542, 44.3966], [7.55447, 44.3966], [7.55447, 44.39678], [7.5542, 44.39678], [7.5542, 44.3966]]]}}, {"type": "Feature", "properties": {"FOGLIO": "0005", "NUMERO": "12"}, "geometry": {"type": "Polygon", "coordinates": [[[7.5545, 44.3966], [7.55477, 44.3966], [7.55477, 44.39678], [7.5545, 44.39678], [7.5545, 44.3966]]]}}, {"type": "Feature", "properties": {"FOGLIO": "0005", "NUMERO": "13"}, "geometry": {"type": "Polygon", "coordinates": [[[7.5548, 44.3966], [7.555070000000001, 44.3966], [7.555070000000001, 44.39678], [7.5548, 44.39678], [7.5548, 44.3966]]]}}, {"type": "Feature", "properties": {"FOGLIO": "0005", "NUMERO": "14"}, "geometry": {"type": "Polygon", "coordinates": [[[7.5550999999999995, 44.3966], [7.55537, 44.3966], [7.55537, 44.39678], [7.5550999999999995, 44.39678], [7.5550999999999995, 44.3966]]]}}, {"type": "Feature", "properties": {"FOGLIO": "0005", "NUMERO": "15"}, "geometry": {"type": "Polygon", "coordinates": [[[7.5554, 44.3966], [7.55567, 44.3966], [7.55567, 44.39678], [7.5554, 44.39678], [7.5554, 44.3966]]]}}, {"type": "Feature", "properties": {"FOGLIO": "0005", "NUMERO": "16"}, "geometry": {"type": "Polygon", "coordinates": [[[7.5557, 44.3966], [7.55597, 44.3966], [7.55597, 44.39678], [7.5557, 44.39678], [7.5557, 44.3966]]]}}, {"type": "Feature", "properties": {"FOGLIO": "0005", "NUMERO": "17"}, "geometry": {"type": "Polygon", "coordinates": [[[7.556, 44.3966], [7.5562700000000005, 44.3966], [7.5562700000000005, 44.39678], [7.556, 44.39678], [7.556, 44.3966]]]}}, {"type": "Feature", "properties": {"FOGLIO": "0005", "NUMERO": "18"}, "geometry": {"type": "Polygon", "coordinates": [[[7.5563, 44.3966], [7.556570000000001, 44.3966], [7.556570000000001, 44.39678], [7.5563, 44.39678], [7.5563, 44.3966]]]}}, {"type": "Feature", "properties": {"FOGLIO": "0005", "NUMERO": "19"}, "geometry": {"type": "Polygon", "coordinates": [[[7.5565999999999995, 44.3966], [7.55687, 44.3966], [7.55687, 44.39678], [7.5565999999999995, 44.39678], [7.5565999999999995, 44.3966]]]}}, {"type": "Feature", "properties": {"FOGLIO": "0005", "NUMERO": "20"}, "geometry": {"type": "Polygon", "coordinates": [[[7.5569, 44.3966], [7.55717, 44.3966], [7.55717, 44.39678], [7.5569, 44.39678], [7.5569, 44.3966]]]}}, {"type": "Feature", "properties": {"FOGLIO": "0005", "NUMERO": "21"}, "geometry": {"type": "Polygon", "coordinates": [[[7.5542, 44.3968], [7.55447, 44.3968], [7.55447, 44.39698], [7.5542, 44.39698], [7.5542, 44.3968]]]}}, {"type": "Feature", "properties": {"FOGLIO": "0005", "NUMERO": "22"}, "geometry": {"type": "Polygon", "coordinates": [[[7.5545, 44.3968], [7.55477, 44.3968], [7.55477, 44.39698], [7.5545, 44.39698], [7.5545, 44.3968]]]}}, {"type": "Feature", "properties": {"FOGLIO": "0005", "NUMERO": "23"}, "geometry": {"type": "Polygon", "coordinates": [[[7.5548, 44.3968], [7.555070000000001, 44.3968], [7.555070000000001, 44.39698], [7.5548, 44.39698], [7.5548, 44.3968]]]}}, {"type": "Feature", "properties": {"FOGLIO": "0005", "NUMERO": "24"}, "geometry": {"type": "Polygon", "coordinates": [[[7.5550999999999995, 44.3968], [7.55537, 44.3968], [7.55537, 44.39698], [7.5550999999999995, 44.39698], [7.5550999999999995, 44.3968]]]}}, {"type": "Feature", "properties": {"FOGLIO": "0005", "NUMERO": "25"}, "geometry": {"type": "Polygon", "coordinates": [[[7.5554, 44.3968], [7.55567, 44.3968], [7.55567, 44.39698], [7.5554, 44.39698], [7.5554, 44.3968]]]}}, {"type": "Feature", "properties": {"FOGLIO": "0005", "NUMERO": "26"}, "geometry": {"type": "Polygon", "coordinates": [[[7.5557, 44.3968], [7.55597, 44.3968], [7.55597, 44.39698], [7.5557, 44.39698], [7.5557, 44.3968]]]}}, {"type": "Feature", "properties": {"FOGLIO": "0005", "NUMERO": "27"}, "geometry": {"type": "Polygon", "coordinates": [[[7.556, 44.3968], [7.5562700000000005, 44.3968], [7.5562700000000005, 44.39698], [7.556, 44.39698], [7.556, 44.3968]]]}}, {"type": "Feature", "properties": {"FOGLIO": "0005", "NUMERO": "28"}, "geometry": {"type": "Polygon", "coordinates": [[[7.5563, 44.3968], [7.556570000000001, 44.3968], [7.556570000000001, 44.39698], [7.5563, 44.39698], [7.5563, 44.3968]]]}}, {"type": "Feature", "properties": {"FOGLIO": "0005", "NUMERO": "29"}, "geometry": {"type": "Polygon", "coordinates": [[[7.5565999999999995, 44.3968], [7.55687, 44.3968], [7.55687, 44.39698], [7.5565999999999995, 44.39698], [7.5565999999999995, 44.3968]]]}}, {"type": "Feature", "properties": {"FOGLIO": "0005", "NUMERO": "30"}, "geometry": {"type": "Polygon", "coordinates": [[[7.5569, 44.3968], [7.55717, 44.3968], [7.55717, 44.39698], [7.5569, 44.39698], [7.5569, 44.3968]]]}}, {"type": "Feature", "properties": {"FOGLIO": "0005", "NUMERO": "31"}, "geometry": {"type": "Polygon", "coordinates": [[[7.5542, 44.397], [7.55447, 44.397], [7.55447, 44.39718], [7.5542, 44.39718], [7.5542, 44.397]]]}}, {"type": "Feature", "properties": {"FOGLIO": "0005", "NUMERO": "32"}, "geometry": {"type": "Polygon", "coordinates": [[[7.5545, 44.397], [7.55477, 44.397], [7.55477, 44.39718], [7.5545, 44.39718], [7.5545, 44.397]]]}}, {"type": "Feature", "properties": {"FOGLIO": "0005", "NUMERO": "33"}, "geometry": {"type": "Polygon", "coordinates": [[[7.5548, 44.397], [7.555070000000001, 44.397], [7.555070000000001, 44.39718], [7.5548, 44.39718], [7.5548, 44.397]]]}}, {"type": "Feature", "properties": {"FOGLIO": "0005", "NUMERO": "34"}, "geometry": {"type": "Polygon", "coordinates": [[[7.5550999999999995, 44.397], [7.55537, 44.397], [7.55537, 44.39718], [7.5550999999999995, 44.39718], [7.5550999999999995, 44.397]]]}}, {"type": "Feature", "properties": {"FOGLIO": "0005", "NUMERO": "35"}, "geometry": {"type": "Polygon", "coordinates": [[[7.5554, 44.397], [7.55567, 44.397], [7.55567, 44.39718], [7.5554, 44.39718], [7.5554, 44.397]]]}}, {"type": "Feature", "properties": {"FOGLIO": "0005", "NUMERO": "36"}, "geometry": {"type": "Polygon", "coordinates": [[[7.5557, 44.397], [7.55597, 44.397], [7.55597, 44.39718], [7.5557, 44.39718], [7.5557, 44.397]]]}}, {"type": "Feature", "properties": {"FOGLIO": "0005", "NUMERO": "37"}, "geometry": {"type": "Polygon", "coordinates": [[[7.556, 44.397], [7.5562700000000005, 44.397], [7.5562700000000005, 44.39718], [7.556, 44.39718], [7.556, 44.397]]]}}, {"type": "Feature", "properties": {"FOGLIO": "0005", "NUMERO": "38"}, "geometry": {"type": "Polygon", "coordinates": [[[7.5563, 44.397], [7.556570000000001, 44.397], [7.556570000000001, 44.39718], [7.5563, 44.39718], [7.5563, 44.397]]]}}, {"type": "Feature", "properties": {"FOGLIO": "0005", "NUMERO": "39"}, "geometry": {"type": "Polygon", "coordinates": [[[7.5565999999999995, 44.397], [7.55687, 44.397], [7.55687, 44.39718], [7.5565999999999995, 44.39718], [7.5565999999999995, 44.397]]]}}, {"type": "Feature", "properties": {"FOGLIO": "0005", "NUMERO": "40"}, "geometry": {"type": "Polygon", "coordinates": [[[7.5569, 44.397], [7.55717, 44.397], [7.55717, 44.39718], [7.5569, 44.39718], [7.5569, 44.397]]]}}, {"type": "Feature", "properties": {"FOGLIO": "0005", "NUMERO": "41"}, "geometry": {"type": "Polygon", "coordinates": [[[7.5542, 44.3972], [7.55447, 44.3972], [7.55447, 44.39738], [7.5542, 44.39738], [7.5542, 44.3972]]]}}, {"type": "Feature", "properties": {"FOGLIO": "0005", "NUMERO": "42"}, "geometry": {"type": "Polygon", "coordinates": [[[7.5545, 44.3972], [7.55477, 44.3972], [7.55477, 44.39738], [7.5545, 44.39738], [7.5545, 44.3972]]]}}, {"type": "Feature", "properties": {"FOGLIO": "0005", "NUMERO": "43"}, "geometry": {"type": "Polygon", "coordinates": [[[7.5548, 44.3972], [7.555070000000001, 44.3972], [7.555070000000001, 44.39738], [7.5548, 44.39738], [7.5548, 44.3972]]]}}, {"type": "Feature", "properties": {"FOGLIO": "0005", "NUMERO": "44"}, "geometry": {"type": "Polygon", "coordinates": [[[7.5550999999999995, 44.3972], [7.55537, 44.3972], [7.55537, 44.39738], [7.5550999999999995, 44.39738], [7.5550999999999995, 44.3972]]]}}, {"type": "Feature", "properties": {"FOGLIO": "0005", "NUMERO": "45"}, "geometry": {"type": "Polygon", "coordinates": [[[7.5554, 44.3972], [7.55567, 44.3972], [7.55567, 44.39738], [7.5554, 44.39738], [7.5554, 44.3972]]]}}, {"type": "Feature", "properties": {"FOGLIO": "0005", "NUMERO": "46"}, "geometry": {"type": "Polygon", "coordinates": [[[7.5557, 44.3972], [7.55597, 44.3972], [7.55597, 44.39738], [7.5557, 44.39738], [7.5557, 44.3972]]]}}, {"type": "Feature", "properties": {"FOGLIO": "0005", "NUMERO": "47"}, "geometry": {"type": "Polygon", "coordinates": [[[7.556, 44.3972], [7.5562700000000005, 44.3972], [7.5562700000000005, 44.39738], [7.556, 44.39738], [7.556, 44.3972]]]}}, {"type": "Feature", "properties": {"FOGLIO": "0005", "NUMERO": "48"}, "geometry": {"type": "Polygon", "coordinates": [[[7.5563, 44.3972], [7.556570000000001, 44.3972], [7.556570000000001, 44.39738], [7.5563, 44.39738], [7.5563, 44.3972]]]}}, {"type": "Feature", "properties": {"FOGLIO": "0005", "NUMERO": "49"}, "geometry": {"type": "Polygon", "coordinates": [[[7.5565999999999995, 44.3972], [7.55687, 44.3972], [7.55687, 44.39738], [7.5565999999999995, 44.39738], [7.5565999999999995, 44.3972]]]}}, {"type": "Feature", "properties": {"FOGLIO": "0005", "NUMERO": "50"}, "geometry": {"type": "Polygon", "coordinates": [[[7.5569, 44.3972], [7.55717, 44.3972], [7.55717, 44.39738], [7.5569, 44.39738], [7.5569, 44.3972]]]}}, {"type": "Feature", "properties": {"FOGLIO": "0006", "NUMERO": "1"}, "geometry": {"type": "Polygon", "coordinates": [[[7.5584, 44.3964], [7.55867, 44.3964], [7.55867, 44.39658], [7.5584, 44.39658], [7.5584, 44.3964]]]}}, {"type": "Feature", "properties": {"FOGLIO": "0006", "NUMERO": "2"}, "geometry": {"type": "Polygon", "coordinates": [[[7.5587, 44.3964], [7.55897, 44.3964], [7.55897, 44.39658], [7.5587, 44.39658], [7.5587, 44.3964]]]}}, {"type": "Feature", "properties": {"FOGLIO": "0006", "NUMERO": "3"}, "geometry": {"type": "Polygon", "coordinates": [[[7.559, 44.3964], [7.559270000000001, 44.3964], [7.559270000000001, 44.39658], [7.559, 44.39658], [7.559, 44.3964]]]}}, {"type": "Feature", "properties": {"FOGLIO": "0006", "NUMERO": "4"}, "geometry": {"type": "Polygon", "coordinates": [[[7.5592999999999995, 44.3964], [7.55957, 44.3964], [7.55957, 44.39658], [7.5592999999999995, 44.39658], [7.5592999999999995, 44.3964]]]}}, {"type": "Feature", "properties": {"FOGLIO": "0006", "NUMERO": "5"}, "geometry": {"type": "Polygon", "coordinates": [[[7.5596, 44.3964], [7.55987, 44.3964], [7.55987, 44.39658], [7.5596, 44.39658], [7.5596, 44.3964]]]}}, {"type": "Feature", "properties": {"FOGLIO": "0006", "NUMERO": "6"}, "geometry": {"type": "Polygon", "coordinates": [[[7.5599, 44.3964], [7.56017, 44.3964], [7.56017, 44.39658], [7.5599, 44.39658], [7.5599, 44.3964]]]}}, {"type": "Feature", "properties": {"FOGLIO": "0006", "NUMERO": "7"}, "geometry": {"type": "Polygon", "coordinates": [[[7.5602, 44.3964], [7.5604700000000005, 44.3964], [7.5604700000000005, 44.39658], [7.5602, 44.39658], [7.5602, 44.3964]]]}}, {"type": "Feature", "properties": {"FOGLIO": "0006", "NUMERO": "8"}, "geometry": {"type": "Polygon", "coordinates": [[[7.5605, 44.3964], [7.560770000000001, 44.3964], [7.560770000000001, 44.39658], [7.5605, 44.39658], [7.5605, 44.3964]]]}}, {"type": "Feature", "properties": {"FOGLIO": "0006", "NUMERO": "9"}, "geometry": {"type": "Polygon", "coordinates": [[[7.5607999999999995, 44.3964], [7.56107, 44.3964], [7.56107, 44.39658], [7.5607999999999995, 44.39658], [7.5607999999999995, 44.3964]]]}}, {"type": "Feature", "properties": {"FOGLIO": "0006", "NUMERO": "10"}, "geometry": {"type": "Polygon", "coordinates": [[[7.5611, 44.3964], [7.56137, 44.3964], [7.56137, 44.39658], [7.5611, 44.39658], [7.5611, 44.3964]]]}}, {"type": "Feature", "properties": {"FOGLIO": "0006", "NUMERO": "11"}, "geometry": {"type": "Polygon", "coordinates": [[[7.5584, 44.3966], [7.55867, 44.3966], [7.55867, 44.39678], [7.5584, 44.39678], [7.5584, 44.3966]]]}}, {"type": "Feature", "properties": {"FOGLIO": "0006", "NUMERO": "12"}, "geometry": {"type": "Polygon", "coordinates": [[[7.5587, 44.3966], [7.55897, 44.3966], [7.55897, 44.39678], [7.5587, 44.39678], [7.5587, 44.3966]]]}}, {"type": "Feature", "properties": {"FOGLIO": "0006", "NUMERO": "13"}, "geometry": {"type": "Polygon", "coordinates": [[[7.559, 44.3966], [7.559270000000001, 44.3966], [7.559270000000001, 44.39678], [7.559, 44.39678], [7.559, 44.3966]]]}}, {"type": "Feature", "properties": {"FOGLIO": "0006", "NUMERO": "14"}, "geometry": {"type": "Polygon", "coordinates": [[[7.5592999999999995, 44.3966], [7.55957, 44.3966], [7.55957, 44.39678], [7.5592999999999995, 44.39678], [7.5592999999999995, 44.3966]]]}}, {"type": "Feature", "properties": {"FOGLIO": "0006", "NUMERO": "15"}, "geometry": {"type": "Polygon", "coordinates": [[[7.5596, 44.3966], [7.55987, 44.3966], [7.55987, 44.39678], [7.5596, 44.39678], [7.5596, 44.3966]]]}}, {"type": "Feature", "properties": {"FOGLIO": "0006", "NUMERO": "16"}, "geometry": {"type": "Polygon", "coordinates": [[[7.5599, 44.3966], [7.56017, 44.3966], [7.56017, 44.39678], [7.5599, 44.39678], [7.5599, 44.3966]]]}}, {"type": "Feature", "properties": {"FOGLIO": "0006", "NUMERO": "17"}, "geometry": {"type": "Polygon", "coordinates": [[[7.5602, 44.3966], [7.5604700000000005, 44.3966], [7.5604700000000005, 44.39678], [7.5602, 44.39678], [7.5602, 44.3966]]]}}, {"type": "Feature", "properties": {"FOGLIO": "0006", "NUMERO": "18"}, "geometry": {"type": "Polygon", "coordinates": [[[7.5605, 44.3966], [7.560770000000001, 44.3966], [7.560770000000001, 44.39678], [7.5605, 44.39678], [7.5605, 44.3966]]]}}, {"type": "Feature", "properties": {"FOGLIO": "0006", "NUMERO": "19"}, "geometry": {"type": "Polygon", "coordinates": [[[7.5607999999999995, 44.3966], [7.56107, 44.3966], [7.56107, 44.39678], [7.5607999999999995, 44.39678], [7.5607999999999995, 44.3966]]]}}, {"type": "Feature", "properties": {"FOGLIO": "0006", "NUMERO": "20"}, "geometry": {"type": "Polygon", "coordinates": [[[7.5611, 44.3966], [7.56137, 44.3966], [7.56137, 44.39678], [7.5611, 44.39678], [7.5611, 44.3966]]]}}, {"type": "Feature", "properties": {"FOGLIO": "0006", "NUMERO": "21"}, "geometry": {"type": "Polygon", "coordinates": [[[7.5584, 44.3968], [7.55867, 44.3968], [7.55867, 44.39698], [7.5584, 44.39698], [7.5584, 44.3968]]]}}, {"type": "Feature", "properties": {"FOGLIO": "0006", "NUMERO": "22"}, "geometry": {"type": "Polygon", "coordinates": [[[7.5587, 44.3968], [7.55897, 44.3968], [7.55897, 44.39698], [7.5587, 44.39698], [7.5587, 44.3968]]]}}, {"type": "Feature", "properties": {"FOGLIO": "0006", "NUMERO": "23"}, "geometry": {"type": "Polygon", "coordinates": [[[7.559, 44.3968], [7.559270000000001, 44.3968], [7.559270000000001, 44.39698], [7.559, 44.39698], [7.559, 44.3968]]]}}, {"type": "Feature", "properties": {"FOGLIO": "0006", "NUMERO": "24"}, "geometry": {"type": "Polygon", "coordinates": [[[7.5592999999999995, 44.3968], [7.55957, 44.3968], [7.55957, 44.39698], [7.5592999999999995, 44.39698], [7.5592999999999995, 44.3968]]]}}, {"type": "Feature", "properties": {"FOGLIO": "0006", "NUMERO": "25"}, "geometry": {"type": "Polygon", "coordinates": [[[7.5596, 44.3968], [7.55987, 44.3968], [7.55987, 44.39698], [7.5596, 44.39698], [7.5596, 44.3968]]]}}, {"type": "Feature", "properties": {"FOGLIO": "0006", "NUMERO": "26"}, "geometry": {"type": "Polygon", "coordinates": [[[7.5599, 44.3968], [7.56017, 44.3968], [7.56017, 44.39698], [7.5599, 44.39698], [7.5599, 44.3968]]]}}, {"type": "Feature", "properties": {"FOGLIO": "0006", "NUMERO": "27"}, "geometry": {"type": "Polygon", "coordinates": [[[7.5602, 44.3968], [7.5604700000000005, 44.3968], [7.5604700000000005, 44.39698], [7.5602, 44.39698], [7.5602, 44.3968]]]}}, {"type": "Feature", "properties": {"FOGLIO": "0006", "NUMERO": "28"}, "geometry": {"type": "Polygon", "coordinates": [[[7.5605, 44.3968], [7.560770000000001, 44.3968], [7.560770000000001, 44.39698], [7.5605, 44.39698], [7.5605, 44.3968]]]}}, {"type": "Feature", "properties": {"FOGLIO": "0006", "NUMERO": "29"}, "geometry": {"type": "Polygon", "coordinates": [[[7.5607999999999995, 44.3968], [7.56107, 44.3968], [7.56107, 44.39698], [7.5607999999999995, 44.39698], [7.5607999999999995, 44.3968]]]}}, {"type": "Feature", "properties": {"FOGLIO": "0006", "NUMERO": "30"}, "geometry": {"type": "Polygon", "coordinates": [[[7.5611, 44.3968], [7.56137, 44.3968], [7.56137, 44.39698], [7.5611, 44.39698], [7.5611, 44.3968]]]}}, {"type": "Feature", "properties": {"FOGLIO": "0006", "NUMERO": "31"}, "geometry": {"type": "Polygon", "coordinates": [[[7.5584, 44.397], [7.55867, 44.397], [7.55867, 44.39718], [7.5584, 44.39718], [7.5584, 44.397]]]}}, {"type": "Feature", "properties": {"FOGLIO": "0006", "NUMERO": "32"}, "geometry": {"type": "Polygon", "coordinates": [[[7.5587, 44.397], [7.55897, 44.397], [7.55897, 44.39718], [7.5587, 44.39718], [7.5587, 44.397]]]}}, {"type": "Feature", "properties": {"FOGLIO": "0006", "NUMERO": "33"}, "geometry": {"type": "Polygon", "coordinates": [[[7.559, 44.397], [7.559270000000001, 44.397], [7.559270000000001, 44.39718], [7.559, 44.39718], [7.559, 44.397]]]}}, {"type": "Feature", "properties": {"FOGLIO": "0006", "NUMERO": "34"}, "geometry": {"type": "Polygon", "coordinates": [[[7.5592999999999995, 44.397], [7.55957, 44.397], [7.55957, 44.39718], [7.5592999999999995, 44.39718], [7.5592999999999995, 44.397]]]}}, {"type": "Feature", "properties": {"FOGLIO": "0006", "NUMERO": "35"}, "geometry": {"type": "Polygon", "coordinates": [[[7.5596, 44.397], [7.55987, 44.397], [7.55987, 44.39718], [7.5596, 44.39718], [7.5596, 44.397]]]}}, {"type": "Feature", "properties": {"FOGLIO": "0006", "NUMERO": "36"}, "geometry": {"type": "Polygon", "coordinates": [[[7.5599, 44.397], [7.56017, 44.397], [7.56017, 44.39718], [7.5599, 44.39718], [7.5599, 44.397]]]}}, {"type": "Feature", "properties": {"FOGLIO": "0006", "NUMERO": "37"}, "geometry": {"type": "Polygon", "coordinates": [[[7.5602, 44.397], [7.5604700000000005, 44.397], [7.5604700000000005, 44.39718], [7.5602, 44.39718], [7.5602, 44.397]]]}}, {"type": "Feature", "properties": {"FOGLIO": "0006", "NUMERO": "38"}, "geometry": {"type": "Polygon", "coordinates": [[[7.5605, 44.397], [7.560770000000001, 44.397], [7.560770000000001, 44.39718], [7.5605, 44.39718], [7.5605, 44.397]]]}}, {"type": "Feature", "properties": {"FOGLIO": "0006", "NUMERO": "39"}, "geometry": {"type": "Polygon", "coordinates": [[[7.5607999999999995, 44.397], [7.56107, 44.397], [7.56107, 44.39718], [7.5607999999999995, 44.39718], [7.5607999999999995, 44.397]]]}}, {"type": "Feature", "properties": {"FOGLIO": "0006", "NUMERO": "40"}, "geometry": {"type": "Polygon", "coordinates": [[[7.5611, 44.397], [7.56137, 44.397], [7.56137, 44.39718], [7.5611, 44.39718], [7.5611, 44.397]]]}}, {"type": "Feature", "properties": {"FOGLIO": "0006", "NUMERO": "41"}, "geometry": {"type": "Polygon", "coordinates": [[[7.5584, 44.3972], [7.55867, 44.3972], [7.55867, 44.39738], [7.5584, 44.39738], [7.5584, 44.3972]]]}}, {"type": "Feature", "properties": {"FOGLIO": "0006", "NUMERO": "42"}, "geometry": {"type": "Polygon", "coordinates": [[[7.5587, 44.3972], [7.55897, 44.3972], [7.55897, 44.39738], [7.5587, 44.39738], [7.5587, 44.3972]]]}}, {"type": "Feature", "properties": {"FOGLIO": "0006", "NUMERO": "43"}, "geometry": {"type": "Polygon", "coordinates": [[[7.559, 44.3972], [7.559270000000001, 44.3972], [7.559270000000001, 44.39738], [7.559, 44.39738], [7.559, 44.3972]]]}}, {"type": "Feature", "properties": {"FOGLIO": "0006", "NUMERO": "44"}, "geometry": {"type": "Polygon", "coordinates": [[[7.5592999999999995, 44.3972], [7.55957, 44.3972], [7.55957, 44.39738], [7.5592999999999995, 44.39738], [7.5592999999999995, 44.3972]]]}}, {"type": "Feature", "properties": {"FOGLIO": "0006", "NUMERO": "45"}, "geometry": {"type": "Polygon", "coordinates": [[[7.5596, 44.3972], [7.55987, 44.3972], [7.55987, 44.39738], [7.5596, 44.39738], [7.5596, 44.3972]]]}}, {"type": "Feature", "properties": {"FOGLIO": "0006", "NUMERO": "46"}, "geometry": {"type": "Polygon", "coordinates": [[[7.5599, 44.3972], [7.56017, 44.3972], [7.56017, 44.39738], [7.5599, 44.39738], [7.5599, 44.3972]]]}}, {"type": "Feature", "properties": {"FOGLIO": "0006", "NUMERO": "47"}, "geometry": {"type": "Polygon", "coordinates": [[[7.5602, 44.3972], [7.5604700000000005, 44.3972], [7.5604700000000005, 44.39738], [7.5602, 44.39738], [7.5602, 44.3972]]]}}, {"type": "Feature", "properties": {"FOGLIO": "0006", "NUMERO": "48"}, "geometry": {"type": "Polygon", "coordinates": [[[7.5605, 44.3972], [7.560770000000001, 44.3972], [7.560770000000001, 44.39738], [7.5605, 44.39738], [7.5605, 44.3972]]]}}, {"type": "Feature", "properties": {"FOGLIO": "0006", "NUMERO": "49"}, "geometry": {"type": "Polygon", "coordinates": [[[7.5607999999999995, 44.3972], [7.56107, 44.3972], [7.56107, 44.39738], [7.5607999999999995, 44.39738], [7.5607999999999995, 44.3972]]]}}, {"type": "Feature", "properties": {"FOGLIO": "0006", "NUMERO": "50"}, "geometry": {"type": "Polygon", "coordinates": [[[7.5611, 44.3972], [7.56137, 44.3972], [7.56137, 44.39738], [7.5611, 44.39738], [7.5611, 44.3972]]]}}, {"type": "Feature", "properties": {"FOGLIO": "0099", "NUMERO": "1"}, "geometry": {"type": "Polygon", "coordinates": [[[7.55, 44.395], [7.55027, 44.395], [7.55027, 44.39518], [7.55, 44.39518], [7.55, 44.395]]]}}, {"type": "Feature", "properties": {"FOGLIO": "0099", "NUMERO": "2"}, "geometry": {"type": "Polygon", "coordinates": [[[7.55, 44.395], [7.55027, 44.395], [7.55027, 44.39518], [7.55, 44.39518], [7.55, 44.395]]]}}, {"type": "Feature", "properties": {"FOGLIO": "0099", "NUMERO": "3"}, "geometry": {"type": "Polygon", "coordinates": [[[7.55, 44.395], [7.55027, 44.395], [7.55027, 44.39518], [7.55, 44.39518], [7.55, 44.395]]]}}, {"type": "Feature", "properties": {}, "geometry": {"type": "Polygon", "coordinates": [[[7.55, 44.395], [7.55027, 44.395], [7.55027, 44.39518], [7.55, 44.39518], [7.55, 44.395]]]}}]}