{"type": "FeatureCollection", "features": [{"type": "Feature", "properties": {"FOGLIO": "0006", "NUMERO": "51"}, "geometry": {"type": "Polygon", "coordinates": [[[7.5648, 44.3992], [7.56507, 44.3992], [7.56507, 44.39938], [7.5648, 44.39938], [7.5648, 44.3992]]]}}, {"type": "Feature", "properties": {"FOGLIO": "0006", "NUMERO": "52"}, "geometry": {"type": "Polygon", "coordinates": [[[7.5651, 44.3992], [7.565370000000001, 44.3992], [7.565370000000001, 44.39938], [7.5651, 44.39938], [7.5651, 44.3992]]]}}, {"type": "Feature", "properties": {"FOGLIO": "0006", "NUMERO": "53"}, "geometry": {"type": "Polygon", "coordinates": [[[7.5654, 44.3992], [7.565670000000001, 44.3992], [7.565670000000001, 44.39938], [7.5654, 44.39938], [7.5654, 44.3992]]]}}, {"type": "Feature", "properties": {"FOGLIO": "0006", "NUMERO": "54"}, "geometry": {"type": "Polygon", "coordinates": [[[7.5657, 44.3992], [7.56597, 44.3992], [7.56597, 44.39938], [7.5657, 44.39938], [7.5657, 44.3992]]]}}, {"type": "Feature", "properties": {"FOGLIO": "0006", "NUMERO": "55"}, "geometry": {"type": "Polygon", "coordinates": [[[7.566, 44.3992], [7.56627, 44.3992], [7.56627, 44.39938], [7.566, 44.39938], [7.566, 44.3992]]]}}]}