{"type": "FeatureCollection", "features": [{"type": "Feature", "properties": {"NATIONALCADASTALREFERENCE": "X900_000100.1", "LABEL": "1"}, "geometry": {"type": "Polygon", "coordinates": [[[7.55, 44.395], [7.55027, 44.395], [7.55027, 44.39518], [7.55, 44.39518], [7.55, 44.395]]]}}, {"type": "Feature", "properties": {"NATIONALCADASTALREFERENCE": "X900_000100.2", "LABEL": "2"}, "geometry": {"type": "Polygon", "coordinates": [[[7.5503, 44.395], [7.5505700000000004, 44.395], [7.5505700000000004, 44.39518], [7.5503, 44.39518], [7.5503, 44.395]]]}}, {"type": "Feature", "properties": {"NATIONALCADASTALREFERENCE": "X900_000100.3", "LABEL": "3"}, "geometry": {"type": "Polygon", "coordinates": [[[7.5506, 44.395], [7.550870000000001, 44.395], [7.550870000000001, 44.39518], [7.5506, 44.39518], [7.5506, 44.395]]]}}, {"type": "Feature", "properties": {"NATIONALCADASTALREFERENCE": "X900_000100.4", "LABEL": "4"}, "geometry": {"type": "Polygon", "coordinates": [[[7.5508999999999995, 44.395], [7.55117, 44.395], [7.55117, 44.39518], [7.5508999999999995, 44.39518], [7.5508999999999995, 44.395]]]}}, {"type": "Feature", "properties": {"NATIONALCADASTALREFERENCE": "X900_000100.5", "LABEL": "5"}, "geometry": {"type": "Polygon", "coordinates": [[[7.5512, 44.395], [7.55147, 44.395], [7.55147, 44.39518], [7.5512, 44.39518], [7.5512, 44.395]]]}}, {"type": "Feature", "properties": {"NATIONALCADASTALREFERENCE": "X900_000100.6", "LABEL": "6"}, "geometry": {"type": "Polygon", "coordinates": [[[7.5515, 44.395], [7.55177, 44.395], [7.55177, 44.39518], [7.5515, 44.39518], [7.5515, 44.395]]]}}, {"type": "Feature", "properties": {"NATIONALCADASTALREFERENCE": "X900_000100.7", "LABEL": "7"}, "geometry": {"type": "Polygon", "coordinates": [[[7.5518, 44.395], [7.5520700000000005, 44.395], [7.5520700000000005, 44.39518], [7.5518, 44.39518], [7.5518, 44.395]]]}}, {"type": "Feature", "properties": {"NATIONALCADASTALREFERENCE": "X900_000100.8", "LABEL": "8"}, "geometry": {"type": "Polygon", "coordinates": [[[7.5521, 44.395], [7.552370000000001, 44.395], [7.552370000000001, 44.39518], [7.5521, 44.39518], [7.5521, 44.395]]]}}, {"type": "Feature", "properties": {"NATIONALCADASTALREFERENCE": "X900_000100.9", "LABEL": "9"}, "geometry": {"type": "Polygon", "coordinates": [[[7.5524, 44.395], [7.55267, 44.395], [7.55267, 44.39518], [7.5524, 44.39518], [7.5524, 44.395]]]}}, {"type": "Feature", "properties": {"NATIONALCADASTALREFERENCE": "X900_000100.10", "LABEL": "10"}, "geometry": {"type": "Polygon", "coordinates": [[[7.5527, 44.395], [7.55297, 44.395], [7.55297, 44.39518], [7.5527, 44.39518], [7.5527, 44.395]]]}}, {"type": "Feature", "properties": {"NATIONALCADASTALREFERENCE": "X900_000100.11", "LABEL": "11"}, "geometry": {"type": "Polygon", "coordinates": [[[7.55, 44.3952], [7.55027, 44.3952], [7.55027, 44.39538], [7.55, 44.39538], [7.55, 44.3952]]]}}, {"type": "Feature", "properties": {"NATIONALCADASTALREFERENCE": "X900_000100.12", "LABEL": "12"}, "geometry": {"type": "Polygon", "coordinates": [[[7.5503, 44.3952], [7.5505700000000004, 44.3952], [7.5505700000000004, 44.39538], [7.5503, 44.39538], [7.5503, 44.3952]]]}}, {"type": "Feature", "properties": {"NATIONALCADASTALREFERENCE": "X900_000100.13", "LABEL": "13"}, "geometry": {"type": "Polygon", "coordinates": [[[7.5506, 44.3952], [7.550870000000001, 44.3952], [7.550870000000001, 44.39538], [7.5506, 44.39538], [7.5506, 44.3952]]]}}, {"type": "Feature", "properties": {"NATIONALCADASTALREFERENCE": "X900_000100.14", "LABEL": "14"}, "geometry": {"type": "Polygon", "coordinates": [[[7.5508999999999995, 44.3952], [7.55117, 44.3952], [7.55117, 44.39538], [7.5508999999999995, 44.39538], [7.5508999999999995, 44.3952]]]}}, {"type": "Feature", "properties": {"NATIONALCADASTALREFERENCE": "X900_000100.15", "LABEL": "15"}, "geometry": {"type": "Polygon", "coordinates": [[[7.5512, 44.3952], [7.55147, 44.3952], [7.55147, 44.39538], [7.5512, 44.39538], [7.5512, 44.3952]]]}}, {"type": "Feature", "properties": {"NATIONALCADASTALREFERENCE": "X900_000100.16", "LABEL": "16"}, "geometry": {"type": "Polygon", "coordinates": [[[7.5515, 44.3952], [7.55177, 44.3952], [7.55177, 44.39538], [7.5515, 44.39538], [7.5515, 44.3952]]]}}, {"type": "Feature", "properties": {"NATIONALCADASTALREFERENCE": "X900_000100.17", "LABEL": "17"}, "geometry": {"type": "Polygon", "coordinates": [[[7.5518, 44.3952], [7.5520700000000005, 44.3952], [7.5520700000000005, 44.39538], [7.5518, 44.39538], [7.5518, 44.3952]]]}}, {"type": "Feature", "properties": {"NATIONALCADASTALREFERENCE": "X900_000100.18", "LABEL": "18"}, "geometry": {"type": "Polygon", "coordinates": [[[7.5521, 44.3952], [7.552370000000001, 44.3952], [7.552370000000001, 44.39538], [7.5521, 44.39538], [7.5521, 44.3952]]]}}, {"type": "Feature", "properties": {"NATIONALCADASTALREFERENCE": "X900_000100.19", "LABEL": "19"}, "geometry": {"type": "Polygon", "coordinates": [[[7.5524, 44.3952], [7.55267, 44.3952], [7.55267, 44.39538], [7.5524, 44.39538], [7.5524, 44.3952]]]}}, {"type": "Feature", "properties": {"NATIONALCADASTALREFERENCE": "X900_000100.20", "LABEL": "20"}, "geometry": {"type": "Polygon", "coordinates": [[[7.5527, 44.3952], [7.55297, 44.3952], [7.55297, 44.39538], [7.5527, 44.39538], [7.5527, 44.3952]]]}}, {"type": "Feature", "properties": {"NATIONALCADASTALREFERENCE": "X900_000100.21", "LABEL": "21"}, "geometry": {"type": "Polygon", "coordinates": [[[7.55, 44.3954], [7.55027, 44.3954], [7.55027, 44.39558], [7.55, 44.39558], [7.55, 44.3954]]]}}, {"type": "Feature", "properties": {"NATIONALCADASTALREFERENCE": "X900_000100.22", "LABEL": "22"}, "geometry": {"type": "Polygon", "coordinates": [[[7.5503, 44.3954], [7.5505700000000004, 44.3954], [7.5505700000000004, 44.39558], [7.5503, 44.39558], [7.5503, 44.3954]]]}}, {"type": "Feature", "properties": {"NATIONALCADASTALREFERENCE": "X900_000100.23", "LABEL": "23"}, "geometry": {"type": "Polygon", "coordinates": [[[7.5506, 44.3954], [7.550870000000001, 44.3954], [7.550870000000001, 44.39558], [7.5506, 44.39558], [7.5506, 44.3954]]]}}, {"type": "Feature", "properties": {"NATIONALCADASTALREFERENCE": "X900_000100.24", "LABEL": "24"}, "geometry": {"type": "Polygon", "coordinates": [[[7.5508999999999995, 44.3954], [7.55117, 44.3954], [7.55117, 44.39558], [7.5508999999999995, 44.39558], [7.5508999999999995, 44.3954]]]}}, {"type": "Feature", "properties": {"NATIONALCADASTALREFERENCE": "X900_000100.25", "LABEL": "25"}, "geometry": {"type": "Polygon", "coordinates": [[[7.5512, 44.3954], [7.55147, 44.3954], [7.55147, 44.39558], [7.5512, 44.39558], [7.5512, 44.3954]]]}}, {"type": "Feature", "properties": {"NATIONALCADASTALREFERENCE": "X900_000100.26", "LABEL": "26"}, "geometry": {"type": "Polygon", "coordinates": [[[7.5515, 44.3954], [7.55177, 44.3954], [7.55177, 44.39558], [7.5515, 44.39558], [7.5515, 44.3954]]]}}, {"type": "Feature", "properties": {"NATIONALCADASTALREFERENCE": "X900_000100.27", "LABEL": "27"}, "geometry": {"type": "Polygon", "coordinates": [[[7.5518, 44.3954], [7.5520700000000005, 44.3954], [7.5520700000000005, 44.39558], [7.5518, 44.39558], [7.5518, 44.3954]]]}}, {"type": "Feature", "properties": {"NATIONALCADASTALREFERENCE": "X900_000100.28", "LABEL": "28"}, "geometry": {"type": "Polygon", "coordinates": [[[7.5521, 44.3954], [7.552370000000001, 44.3954], [7.552370000000001, 44.39558], [7.5521, 44.39558], [7.5521, 44.3954]]]}}, {"type": "Feature", "properties": {"NATIONALCADASTALREFERENCE": "X900_000100.29", "LABEL": "29"}, "geometry": {"type": "Polygon", "coordinates": [[[7.5524, 44.3954], [7.55267, 44.3954], [7.55267, 44.39558], [7.5524, 44.39558], [7.5524, 44.3954]]]}}, {"type": "Feature", "properties": {"NATIONALCADASTALREFERENCE": "X900_000100.30", "LABEL": "30"}, "geometry": {"type": "Polygon", "coordinates": [[[7.5527, 44.3954], [7.55297, 44.3954], [7.55297, 44.39558], [7.5527, 44.39558], [7.5527, 44.3954]]]}}, {"type": "Feature", "properties": {"NATIONALCADASTALREFERENCE": "X900_000100.31", "LABEL": "31"}, "geometry": {"type": "Polygon", "coordinates": [[[7.55, 44.3956], [7.55027, 44.3956], [7.55027, 44.39578], [7.55, 44.39578], [7.55, 44.3956]]]}}, {"type": "Feature", "properties": {"NATIONALCADASTALREFERENCE": "X900_000100.32", "LABEL": "32"}, "geometry": {"type": "Polygon", "coordinates": [[[7.5503, 44.3956], [7.5505700000000004, 44.3956], [7.5505700000000004, 44.39578], [7.5503, 44.39578], [7.5503, 44.3956]]]}}, {"type": "Feature", "properties": {"NATIONALCADASTALREFERENCE": "X900_000100.33", "LABEL": "33"}, "geometry": {"type": "Polygon", "coordinates": [[[7.5506, 44.3956], [7.550870000000001, 44.3956], [7.550870000000001, 44.39578], [7.5506, 44.39578], [7.5506, 44.3956]]]}}, {"type": "Feature", "properties": {"NATIONALCADASTALREFERENCE": "X900_000100.34", "LABEL": "34"}, "geometry": {"type": "Polygon", "coordinates": [[[7.5508999999999995, 44.3956], [7.55117, 44.3956], [7.55117, 44.39578], [7.5508999999999995, 44.39578], [7.5508999999999995, 44.3956]]]}}, {"type": "Feature", "properties": {"NATIONALCADASTALREFERENCE": "X900_000100.35", "LABEL": "35"}, "geometry": {"type": "Polygon", "coordinates": [[[7.5512, 44.3956], [7.55147, 44.3956], [7.55147, 44.39578], [7.5512, 44.39578], [7.5512, 44.3956]]]}}, {"type": "Feature", "properties": {"NATIONALCADASTALREFERENCE": "X900_000100.36", "LABEL": "36"}, "geometry": {"type": "Polygon", "coordinates": [[[7.5515, 44.3956], [7.55177, 44.3956], [7.55177, 44.39578], [7.5515, 44.39578], [7.5515, 44.3956]]]}}, {"type": "Feature", "properties": {"NATIONALCADASTALREFERENCE": "X900_000100.37", "LABEL": "37"}, "geometry": {"type": "Polygon", "coordinates": [[[7.5518, 44.3956], [7.5520700000000005, 44.3956], [7.5520700000000005, 44.39578], [7.5518, 44.39578], [7.5518, 44.3956]]]}}, {"type": "Feature", "properties": {"NATIONALCADASTALREFERENCE": "X900_000100.38", "LABEL": "38"}, "geometry": {"type": "Polygon", "coordinates": [[[7.5521, 44.3956], [7.552370000000001, 44.3956], [7.552370000000001, 44.39578], [7.5521, 44.39578], [7.5521, 44.3956]]]}}, {"type": "Feature", "properties": {"NATIONALCADASTALREFERENCE": "X900_000100.39", "LABEL": "39"}, "geometry": {"type": "Polygon", "coordinates": [[[7.5524, 44.3956], [7.55267, 44.3956], [7.55267, 44.39578], [7.5524, 44.39578], [7.5524, 44.3956]]]}}, {"type": "Feature", "properties": {"NATIONALCADASTALREFERENCE": "X900_000100.40", "LABEL": "40"}, "geometry": {"type": "Polygon", "coordinates": [[[7.5527, 44.3956], [7.55297, 44.3956], [7.55297, 44.39578], [7.5527, 44.39578], [7.5527, 44.3956]]]}}, {"type": "Feature", "properties": {"NATIONALCADASTALREFERENCE": "X900_000100.41", "LABEL": "41"}, "geometry": {"type": "Polygon", "coordinates": [[[7.55, 44.3958], [7.55027, 44.3958], [7.55027, 44.39598], [7.55, 44.39598], [7.55, 44.3958]]]}}, {"type": "Feature", "properties": {"NATIONALCADASTALREFERENCE": "X900_000100.42", "LABEL": "42"}, "geometry": {"type": "Polygon", "coordinates": [[[7.5503, 44.3958], [7.5505700000000004, 44.3958], [7.5505700000000004, 44.39598], [7.5503, 44.39598], [7.5503, 44.3958]]]}}, {"type": "Feature", "properties": {"NATIONALCADASTALREFERENCE": "X900_000100.43", "LABEL": "43"}, "geometry": {"type": "Polygon", "coordinates": [[[7.5506, 44.3958], [7.550870000000001, 44.3958], [7.550870000000001, 44.39598], [7.5506, 44.39598], [7.5506, 44.3958]]]}}, {"type": "Feature", "properties": {"NATIONALCADASTALREFERENCE": "X900_000100.44", "LABEL": "44"}, "geometry": {"type": "Polygon", "coordinates": [[[7.5508999999999995, 44.3958], [7.55117, 44.3958], [7.55117, 44.39598], [7.5508999999999995, 44.39598], [7.5508999999999995, 44.3958]]]}}, {"type": "Feature", "properties": {"NATIONALCADASTALREFERENCE": "X900_000100.45", "LABEL": "45"}, "geometry": {"type": "Polygon", "coordinates": [[[7.5512, 44.3958], [7.55147, 44.3958], [7.55147, 44.39598], [7.5512, 44.39598], [7.5512, 44.3958]]]}}, {"type": "Feature", "properties": {"NATIONALCADASTALREFERENCE": "X900_000100.46", "LABEL": "46"}, "geometry": {"type": "Polygon", "coordinates": [[[7.5515, 44.3958], [7.55177, 44.3958], [7.55177, 44.39598], [7.5515, 44.39598], [7.5515, 44.3958]]]}}, {"type": "Feature", "properties": {"NATIONALCADASTALREFERENCE": "X900_000100.47", "LABEL": "47"}, "geometry": {"type": "Polygon", "coordinates": [[[7.5518, 44.3958], [7.5520700000000005, 44.3958], [7.5520700000000005, 44.39598], [7.5518, 44.39598], [7.5518, 44.3958]]]}}, {"type": "Feature", "properties": {"NATIONALCADASTALREFERENCE": "X900_000100.48", "LABEL": "48"}, "geometry": {"type": "Polygon", "coordinates": [[[7.5521, 44.3958], [7.552370000000001, 44.3958], [7.552370000000001, 44.39598], [7.5521, 44.39598], [7.5521, 44.3958]]]}}, {"type": "Feature", "properties": {"NATIONALCADASTALREFERENCE": "X900_000100.49", "LABEL": "49"}, "geometry": {"type": "Polygon", "coordinates": [[[7.5524, 44.3958], [7.55267, 44.3958], [7.55267, 44.39598], [7.5524, 44.39598], [7.5524, 44.3958]]]}}, {"type": "Feature", "properties": {"NATIONALCADASTALREFERENCE": "X900_000100.50", "LABEL": "50"}, "geometry": {"type": "Polygon", "coordinates": [[[7.5527, 44.3958], [7.55297, 44.3958], [7.55297, 44.39598], [7.5527, 44.39598], [7.5527, 44.3958]]]}}, {"type": "Feature", "properties": {"NATIONALCADASTALREFERENCE": "X900_000200.1", "LABEL": "1"}, "geometry": {"type": "Polygon", "coordinates": [[[7.5542, 44.395], [7.55447, 44.395], [7.55447, 44.39518], [7.5542, 44.39518], [7.5542, 44.395]]]}}, {"type": "Feature", "properties": {"NATIONALCADASTALREFERENCE": "X900_000200.2", "LABEL": "2"}, "geometry": {"type": "Polygon", "coordinates": [[[7.5545, 44.395], [7.55477, 44.395], [7.55477, 44.39518], [7.5545, 44.39518], [7.5545, 44.395]]]}}, {"type": "Feature", "properties": {"NATIONALCADASTALREFERENCE": "X900_000200.3", "LABEL": "3"}, "geometry": {"type": "Polygon", "coordinates": [[[7.5548, 44.395], [7.555070000000001, 44.395], [7.555070000000001, 44.39518], [7.5548, 44.39518], [7.5548, 44.395]]]}}, {"type": "Feature", "properties": {"NATIONALCADASTALREFERENCE": "X900_000200.4", "LABEL": "4"}, "geometry": {"type": "Polygon", "coordinates": [[[7.5550999999999995, 44.395], [7.55537, 44.395], [7.55537, 44.39518], [7.5550999999999995, 44.39518], [7.5550999999999995, 44.395]]]}}, {"type": "Feature", "properties": {"NATIONALCADASTALREFERENCE": "X900_000200.5", "LABEL": "5"}, "geometry": {"type": "Polygon", "coordinates": [[[7.5554, 44.395], [7.55567, 44.395], [7.55567, 44.39518], [7.5554, 44.39518], [7.5554, 44.395]]]}}, {"type": "Feature", "properties": {"NATIONALCADASTALREFERENCE": "X900_000200.6", "LABEL": "6"}, "geometry": {"type": "Polygon", "coordinates": [[[7.5557, 44.395], [7.55597, 44.395], [7.55597, 44.39518], [7.5557, 44.39518], [7.5557, 44.395]]]}}, {"type": "Feature", "properties": {"NATIONALCADASTALREFERENCE": "X900_000200.7", "LABEL": "7"}, "geometry": {"type": "Polygon", "coordinates": [[[7.556, 44.395], [7.5562700000000005, 44.395], [7.5562700000000005, 44.39518], [7.556, 44.39518], [7.556, 44.395]]]}}, {"type": "Feature", "properties": {"NATIONALCADASTALREFERENCE": "X900_000200.8", "LABEL": "8"}, "geometry": {"type": "Polygon", "coordinates": [[[7.5563, 44.395], [7.556570000000001, 44.395], [7.556570000000001, 44.39518], [7.5563, 44.39518], [7.5563, 44.395]]]}}, {"type": "Feature", "properties": {"NATIONALCADASTALREFERENCE": "X900_000200.9", "LABEL": "9"}, "geometry": {"type": "Polygon", "coordinates": [[[7.5565999999999995, 44.395], [7.55687, 44.395], [7.55687, 44.39518], [7.5565999999999995, 44.39518], [7.5565999999999995, 44.395]]]}}, {"type": "Feature", "properties": {"NATIONALCADASTALREFERENCE": "X900_000200.10", "LABEL": "10"}, "geometry": {"type": "Polygon", "coordinates": [[[7.5569, 44.395], [7.55717, 44.395], [7.55717, 44.39518], [7.5569, 44.39518], [7.5569, 44.395]]]}}, {"type": "Feature", "properties": {"NATIONALCADASTALREFERENCE": "X900_000200.11", "LABEL": "11"}, "geometry": {"type": "Polygon", "coordinates": [[[7.5542, 44.3952], [7.55447, 44.3952], [7.55447, 44.39538], [7.5542, 44.39538], [7.5542, 44.3952]]]}}, {"type": "Feature", "properties": {"NATIONALCADASTALREFERENCE": "X900_000200.12", "LABEL": "12"}, "geometry": {"type": "Polygon", "coordinates": [[[7.5545, 44.3952], [7.55477, 44.3952], [7.55477, 44.39538], [7.5545, 44.39538], [7.5545, 44.3952]]]}}, {"type": "Feature", "properties": {"NATIONALCADASTALREFERENCE": "X900_000200.13", "LABEL": "13"}, "geometry": {"type": "Polygon", "coordinates": [[[7.5548, 44.3952], [7.555070000000001, 44.3952], [7.555070000000001, 44.39538], [7.5548, 44.39538], [7.5548, 44.3952]]]}}, {"type": "Feature", "properties": {"NATIONALCADASTALREFERENCE": "X900_000200.14", "LABEL": "14"}, "geometry": {"type": "Polygon", "coordinates": [[[7.5550999999999995, 44.3952], [7.55537, 44.3952], [7.55537, 44.39538], [7.5550999999999995, 44.39538], [7.5550999999999995, 44.3952]]]}}, {"type": "Feature", "properties": {"NATIONALCADASTALREFERENCE": "X900_000200.15", "LABEL": "15"}, "geometry": {"type": "Polygon", "coordinates": [[[7.5554, 44.3952], [7.55567, 44.3952], [7.55567, 44.39538], [7.5554, 44.39538], [7.5554, 44.3952]]]}}, {"type": "Feature", "properties": {"NATIONALCADASTALREFERENCE": "X900_000200.16", "LABEL": "16"}, "geometry": {"type": "Polygon", "coordinates": [[[7.5557, 44.3952], [7.55597, 44.3952], [7.55597, 44.39538], [7.5557, 44.39538], [7.5557, 44.3952]]]}}, {"type": "Feature", "properties": {"NATIONALCADASTALREFERENCE": "X900_000200.17", "LABEL": "17"}, "geometry": {"type": "Polygon", "coordinates": [[[7.556, 44.3952], [7.5562700000000005, 44.3952], [7.5562700000000005, 44.39538], [7.556, 44.39538], [7.556, 44.3952]]]}}, {"type": "Feature", "properties": {"NATIONALCADASTALREFERENCE": "X900_000200.18", "LABEL": "18"}, "geometry": {"type": "Polygon", "coordinates": [[[7.5563, 44.3952], [7.556570000000001, 44.3952], [7.556570000000001, 44.39538], [7.5563, 44.39538], [7.5563, 44.3952]]]}}, {"type": "Feature", "properties": {"NATIONALCADASTALREFERENCE": "X900_000200.19", "LABEL": "19"}, "geometry": {"type": "Polygon", "coordinates": [[[7.5565999999999995, 44.3952], [7.55687, 44.3952], [7.55687, 44.39538], [7.5565999999999995, 44.39538], [7.5565999999999995, 44.3952]]]}}, {"type": "Feature", "properties": {"NATIONALCADASTALREFERENCE": "X900_000200.20", "LABEL": "20"}, "geometry": {"type": "Polygon", "coordinates": [[[7.5569, 44.3952], [7.55717, 44.3952], [7.55717, 44.39538], [7.5569, 44.39538], [7.5569, 44.3952]]]}}, {"type": "Feature", "properties": {"NATIONALCADASTALREFERENCE": "X900_000200.21", "LABEL": "21"}, "geometry": {"type": "Polygon", "coordinates": [[[7.5542, 44.3954], [7.55447, 44.3954], [7.55447, 44.39558], [7.5542, 44.39558], [7.5542, 44.3954]]]}}, {"type": "Feature", "properties": {"NATIONALCADASTALREFERENCE": "X900_000200.22", "LABEL": "22"}, "geometry": {"type": "Polygon", "coordinates": [[[7.5545, 44.3954], [7.55477, 44.3954], [7.55477, 44.39558], [7.5545, 44.39558], [7.5545, 44.3954]]]}}, {"type": "Feature", "properties": {"NATIONALCADASTALREFERENCE": "X900_000200.23", "LABEL": "23"}, "geometry": {"type": "Polygon", "coordinates": [[[7.5548, 44.3954], [7.555070000000001, 44.3954], [7.555070000000001, 44.39558], [7.5548, 44.39558], [7.5548, 44.3954]]]}}, {"type": "Feature", "properties": {"NATIONALCADASTALREFERENCE": "X900_000200.24", "LABEL": "24"}, "geometry": {"type": "Polygon", "coordinates": [[[7.5550999999999995, 44.3954], [7.55537, 44.3954], [7.55537, 44.39558], [7.5550999999999995, 44.39558], [7.5550999999999995, 44.3954]]]}}, {"type": "Feature", "properties": {"NATIONALCADASTALREFERENCE": "X900_000200.25", "LABEL": "25"}, "geometry": {"type": "Polygon", "coordinates": [[[7.5554, 44.3954], [7.55567, 44.3954], [7.55567, 44.39558], [7.5554, 44.39558], [7.5554, 44.3954]]]}}, {"type": "Feature", "properties": {"NATIONALCADASTALREFERENCE": "X900_000200.26", "LABEL": "26"}, "geometry": {"type": "Polygon", "coordinates": [[[7.5557, 44.3954], [7.55597, 44.3954], [7.55597, 44.39558], [7.5557, 44.39558], [7.5557, 44.3954]]]}}, {"type": "Feature", "properties": {"NATIONALCADASTALREFERENCE": "X900_000200.27", "LABEL": "27"}, "geometry": {"type": "Polygon", "coordinates": [[[7.556, 44.3954], [7.5562700000000005, 44.3954], [7.5562700000000005, 44.39558], [7.556, 44.39558], [7.556, 44.3954]]]}}, {"type": "Feature", "properties": {"NATIONALCADASTALREFERENCE": "X900_000200.28", "LABEL": "28"}, "geometry": {"type": "Polygon", "coordinates": [[[7.5563, 44.3954], [7.556570000000001, 44.3954], [7.556570000000001, 44.39558], [7.5563, 44.39558], [7.5563, 44.3954]]]}}, {"type": "Feature", "properties": {"NATIONALCADASTALREFERENCE": "X900_000200.29", "LABEL": "29"}, "geometry": {"type": "Polygon", "coordinates": [[[7.5565999999999995, 44.3954], [7.55687, 44.3954], [7.55687, 44.39558], [7.5565999999999995, 44.39558], [7.5565999999999995, 44.3954]]]}}, {"type": "Feature", "properties": {"NATIONALCADASTALREFERENCE": "X900_000200.30", "LABEL": "30"}, "geometry": {"type": "Polygon", "coordinates": [[[7.5569, 44.3954], [7.55717, 44.3954], [7.55717, 44.39558], [7.5569, 44.39558], [7.5569, 44.3954]]]}}, {"type": "Feature", "properties": {"NATIONALCADASTALREFERENCE": "X900_000200.31", "LABEL": "31"}, "geometry": {"type": "Polygon", "coordinates": [[[7.5542, 44.3956], [7.55447, 44.3956], [7.55447, 44.39578], [7.5542, 44.39578], [7.5542, 44.3956]]]}}, {"type": "Feature", "properties": {"NATIONALCADASTALREFERENCE": "X900_000200.32", "LABEL": "32"}, "geometry": {"type": "Polygon", "coordinates": [[[7.5545, 44.3956], [7.55477, 44.3956], [7.55477, 44.39578], [7.5545, 44.39578], [7.5545, 44.3956]]]}}, {"type": "Feature", "properties": {"NATIONALCADASTALREFERENCE": "X900_000200.33", "LABEL": "33"}, "geometry": {"type": "Polygon", "coordinates": [[[7.5548, 44.3956], [7.555070000000001, 44.3956], [7.555070000000001, 44.39578], [7.5548, 44.39578], [7.5548, 44.3956]]]}}, {"type": "Feature", "properties": {"NATIONALCADASTALREFERENCE": "X900_000200.34", "LABEL": "34"}, "geometry": {"type": "Polygon", "coordinates": [[[7.5550999999999995, 44.3956], [7.55537, 44.3956], [7.55537, 44.39578], [7.5550999999999995, 44.39578], [7.5550999999999995, 44.3956]]]}}, {"type": "Feature", "properties": {"NATIONALCADASTALREFERENCE": "X900_000200.35", "LABEL": "35"}, "geometry": {"type": "Polygon", "coordinates": [[[7.5554, 44.3956], [7.55567, 44.3956], [7.55567, 44.39578], [7.5554, 44.39578], [7.5554, 44.3956]]]}}, {"type": "Feature", "properties": {"NATIONALCADASTALREFERENCE": "X900_000200.36", "LABEL": "36"}, "geometry": {"type": "Polygon", "coordinates": [[[7.5557, 44.3956], [7.55597, 44.3956], [7.55597, 44.39578], [7.5557, 44.39578], [7.5557, 44.3956]]]}}, {"type": "Feature", "properties": {"NATIONALCADASTALREFERENCE": "X900_000200.37", "LABEL": "37"}, "geometry": {"type": "Polygon", "coordinates": [[[7.556, 44.3956], [7.5562700000000005, 44.3956], [7.5562700000000005, 44.39578], [7.556, 44.39578], [7.556, 44.3956]]]}}, {"type": "Feature", "properties": {"NATIONALCADASTALREFERENCE": "X900_000200.38", "LABEL": "38"}, "geometry": {"type": "Polygon", "coordinates": [[[7.5563, 44.3956], [7.556570000000001, 44.3956], [7.556570000000001, 44.39578], [7.5563, 44.39578], [7.5563, 44.3956]]]}}, {"type": "Feature", "properties": {"NATIONALCADASTALREFERENCE": "X900_000200.39", "LABEL": "39"}, "geometry": {"type": "Polygon", "coordinates": [[[7.5565999999999995, 44.3956], [7.55687, 44.3956], [7.55687, 44.39578], [7.5565999999999995, 44.39578], [7.5565999999999995, 44.3956]]]}}, {"type": "Feature", "properties": {"NATIONALCADASTALREFERENCE": "X900_000200.40", "LABEL": "40"}, "geometry": {"type": "Polygon", "coordinates": [[[7.5569, 44.3956], [7.55717, 44.3956], [7.55717, 44.39578], [7.5569, 44.39578], [7.5569, 44.3956]]]}}, {"type": "Feature", "properties": {"NATIONALCADASTALREFERENCE": "X900_000200.41", "LABEL": "41"}, "geometry": {"type": "Polygon", "coordinates": [[[7.5542, 44.3958], [7.55447, 44.3958], [7.55447, 44.39598], [7.5542, 44.39598], [7.5542, 44.3958]]]}}, {"type": "Feature", "properties": {"NATIONALCADASTALREFERENCE": "X900_000200.42", "LABEL": "42"}, "geometry": {"type": "Polygon", "coordinates": [[[7.5545, 44.3958], [7.55477, 44.3958], [7.55477, 44.39598], [7.5545, 44.39598], [7.5545, 44.3958]]]}}, {"type": "Feature", "properties": {"NATIONALCADASTALREFERENCE": "X900_000200.43", "LABEL": "43"}, "geometry": {"type": "Polygon", "coordinates": [[[7.5548, 44.3958], [7.555070000000001, 44.3958], [7.555070000000001, 44.39598], [7.5548, 44.39598], [7.5548, 44.3958]]]}}, {"type": "Feature", "properties": {"NATIONALCADASTALREFERENCE": "X900_000200.44", "LABEL": "44"}, "geometry": {"type": "Polygon", "coordinates": [[[7.5550999999999995, 44.3958], [7.55537, 44.3958], [7.55537, 44.39598], [7.5550999999999995, 44.39598], [7.5550999999999995, 44.3958]]]}}, {"type": "Feature", "properties": {"NATIONALCADASTALREFERENCE": "X900_000200.45", "LABEL": "45"}, "geometry": {"type": "Polygon", "coordinates": [[[7.5554, 44.3958], [7.55567, 44.3958], [7.55567, 44.39598], [7.5554, 44.39598], [7.5554, 44.3958]]]}}, {"type": "Feature", "properties": {"NATIONALCADASTALREFERENCE": "X900_000200.46", "LABEL": "46"}, "geometry": {"type": "Polygon", "coordinates": [[[7.5557, 44.3958], [7.55597, 44.3958], [7.55597, 44.39598], [7.5557, 44.39598], [7.5557, 44.3958]]]}}, {"type": "Feature", "properties": {"NATIONALCADASTALREFERENCE": "X900_000200.47", "LABEL": "47"}, "geometry": {"type": "Polygon", "coordinates": [[[7.556, 44.3958], [7.5562700000000005, 44.3958], [7.5562700000000005, 44.39598], [7.556, 44.39598], [7.556, 44.3958]]]}}, {"type": "Feature", "properties": {"NATIONALCADASTALREFERENCE": "X900_000200.48", "LABEL": "48"}, "geometry": {"type": "Polygon", "coordinates": [[[7.5563, 44.3958], [7.556570000000001, 44.3958], [7.556570000000001, 44.39598], [7.5563, 44.39598], [7.5563, 44.3958]]]}}, {"type": "Feature", "properties": {"NATIONALCADASTALREFERENCE": "X900_000200.49", "LABEL": "49"}, "geometry": {"type": "Polygon", "coordinates": [[[7.5565999999999995, 44.3958], [7.55687, 44.3958], [7.55687, 44.39598], [7.5565999999999995, 44.39598], [7.5565999999999995, 44.3958]]]}}, {"type": "Feature", "properties": {"NATIONALCADASTALREFERENCE": "X900_000200.50", "LABEL": "50"}, "geometry": {"type": "Polygon", "coordinates": [[[7.5569, 44.3958], [7.55717, 44.3958], [7.55717, 44.39598], [7.5569, 44.39598], [7.5569, 44.3958]]]}}, {"type": "Feature", "properties": {"NATIONALCADASTALREFERENCE": "X900_000300.1", "LABEL": "1"}, "geometry": {"type": "Polygon", "coordinates": [[[7.5584, 44.395], [7.55867, 44.395], [7.55867, 44.39518], [7.5584, 44.39518], [7.5584, 44.395]]]}}, {"type": "Feature", "properties": {"NATIONALCADASTALREFERENCE": "X900_000300.2", "LABEL": "2"}, "geometry": {"type": "Polygon", "coordinates": [[[7.5587, 44.395], [7.55897, 44.395], [7.55897, 44.39518], [7.5587, 44.39518], [7.5587, 44.395]]]}}, {"type": "Feature", "properties": {"NATIONALCADASTALREFERENCE": "X900_000300.3", "LABEL": "3"}, "geometry": {"type": "Polygon", "coordinates": [[[7.559, 44.395], [7.559270000000001, 44.395], [7.559270000000001, 44.39518], [7.559, 44.39518], [7.559, 44.395]]]}}, {"type": "Feature", "properties": {"NATIONALCADASTALREFERENCE": "X900_000300.4", "LABEL": "4"}, "geometry": {"type": "Polygon", "coordinates": [[[7.5592999999999995, 44.395], [7.55957, 44.395], [7.55957, 44.39518], [7.5592999999999995, 44.39518], [7.5592999999999995, 44.395]]]}}, {"type": "Feature", "properties": {"NATIONALCADASTALREFERENCE": "X900_000300.5", "LABEL": "5"}, "geometry": {"type": "Polygon", "coordinates": [[[7.5596, 44.395], [7.55987, 44.395], [7.55987, 44.39518], [7.5596, 44.39518], [7.5596, 44.395]]]}}, {"type": "Feature", "properties": {"NATIONALCADASTALREFERENCE": "X900_000300.6", "LABEL": "6"}, "geometry": {"type": "Polygon", "coordinates": [[[7.5599, 44.395], [7.56017, 44.395], [7.56017, 44.39518], [7.5599, 44.39518], [7.5599, 44.395]]]}}, {"type": "Feature", "properties": {"NATIONALCADASTALREFERENCE": "X900_000300.7", "LABEL": "7"}, "geometry": {"type": "Polygon", "coordinates": [[[7.5602, 44.395], [7.5604700000000005, 44.395], [7.5604700000000005, 44.39518], [7.5602, 44.39518], [7.5602, 44.395]]]}}, {"type": "Feature", "properties": {"NATIONALCADASTALREFERENCE": "X900_000300.8", "LABEL": "8"}, "geometry": {"type": "Polygon", "coordinates": [[[7.5605, 44.395], [7.560770000000001, 44.395], [7.560770000000001, 44.39518], [7.5605, 44.39518], [7.5605, 44.395]]]}}, {"type": "Feature", "properties": {"NATIONALCADASTALREFERENCE": "X900_000300.9", "LABEL": "9"}, "geometry": {"type": "Polygon", "coordinates": [[[7.5607999999999995, 44.395], [7.56107, 44.395], [7.56107, 44.39518], [7.5607999999999995, 44.39518], [7.5607999999999995, 44.395]]]}}, {"type": "Feature", "properties": {"NATIONALCADASTALREFERENCE": "X900_000300.10", "LABEL": "10"}, "geometry": {"type": "Polygon", "coordinates": [[[7.5611, 44.395], [7.56137, 44.395], [7.56137, 44.39518], [7.5611, 44.39518], [7.5611, 44.395]]]}}, {"type": "Feature", "properties": {"NATIONALCADASTALREFERENCE": "X900_000300.11", "LABEL": "11"}, "geometry": {"type": "Polygon", "coordinates": [[[7.5584, 44.3952], [7.55867, 44.3952], [7.55867, 44.39538], [7.5584, 44.39538], [7.5584, 44.3952]]]}}, {"type": "Feature", "properties": {"NATIONALCADASTALREFERENCE": "X900_000300.12", "LABEL": "12"}, "geometry": {"type": "Polygon", "coordinates": [[[7.5587, 44.3952], [7.55897, 44.3952], [7.55897, 44.39538], [7.5587, 44.39538], [7.5587, 44.3952]]]}}, {"type": "Feature", "properties": {"NATIONALCADASTALREFERENCE": "X900_000300.13", "LABEL": "13"}, "geometry": {"type": "Polygon", "coordinates": [[[7.559, 44.3952], [7.559270000000001, 44.3952], [7.559270000000001, 44.39538], [7.559, 44.39538], [7.559, 44.3952]]]}}, {"type": "Feature", "properties": {"NATIONALCADASTALREFERENCE": "X900_000300.14", "LABEL": "14"}, "geometry": {"type": "Polygon", "coordinates": [[[7.5592999999999995, 44.3952], [7.55957, 44.3952], [7.55957, 44.39538], [7.5592999999999995, 44.39538], [7.5592999999999995, 44.3952]]]}}, {"type": "Feature", "properties": {"NATIONALCADASTALREFERENCE": "X900_000300.15", "LABEL": "15"}, "geometry": {"type": "Polygon", "coordinates": [[[7.5596, 44.3952], [7.55987, 44.3952], [7.55987, 44.39538], [7.5596, 44.39538], [7.5596, 44.3952]]]}}, {"type": "Feature", "properties": {"NATIONALCADASTALREFERENCE": "X900_000300.16", "LABEL": "16"}, "geometry": {"type": "Polygon", "coordinates": [[[7.5599, 44.3952], [7.56017, 44.3952], [7.56017, 44.39538], [7.5599, 44.39538], [7.5599, 44.3952]]]}}, {"type": "Feature", "properties": {"NATIONALCADASTALREFERENCE": "X900_000300.17", "LABEL": "17"}, "geometry": {"type": "Polygon", "coordinates": [[[7.5602, 44.3952], [7.5604700000000005, 44.3952], [7.5604700000000005, 44.39538], [7.5602, 44.39538], [7.5602, 44.3952]]]}}, {"type": "Feature", "properties": {"NATIONALCADASTALREFERENCE": "X900_000300.18", "LABEL": "18"}, "geometry": {"type": "Polygon", "coordinates": [[[7.5605, 44.3952], [7.560770000000001, 44.3952], [7.560770000000001, 44.39538], [7.5605, 44.39538], [7.5605, 44.3952]]]}}, {"type": "Feature", "properties": {"NATIONALCADASTALREFERENCE": "X900_000300.19", "LABEL": "19"}, "geometry": {"type": "Polygon", "coordinates": [[[7.5607999999999995, 44.3952], [7.56107, 44.3952], [7.56107, 44.39538], [7.5607999999999995, 44.39538], [7.5607999999999995, 44.3952]]]}}, {"type": "Feature", "properties": {"NATIONALCADASTALREFERENCE": "X900_000300.20", "LABEL": "20"}, "geometry": {"type": "Polygon", "coordinates": [[[7.5611, 44.3952], [7.56137, 44.3952], [7.56137, 44.39538], [7.5611, 44.39538], [7.5611, 44.3952]]]}}, {"type": "Feature", "properties": {"NATIONALCADASTALREFERENCE": "X900_000300.21", "LABEL": "21"}, "geometry": {"type": "Polygon", "coordinates": [[[7.5584, 44.3954], [7.55867, 44.3954], [7.55867, 44.39558], [7.5584, 44.39558], [7.5584, 44.3954]]]}}, {"type": "Feature", "properties": {"NATIONALCADASTALREFERENCE": "X900_000300.22", "LABEL": "22"}, "geometry": {"type": "Polygon", "coordinates": [[[7.5587, 44.3954], [7.55897, 44.3954], [7.55897, 44.39558], [7.5587, 44.39558], [7.5587, 44.3954]]]}}, {"type": "Feature", "properties": {"NATIONALCADASTALREFERENCE": "X900_000300.23", "LABEL": "23"}, "geometry": {"type": "Polygon", "coordinates": [[[7.559, 44.3954], [7.559270000000001, 44.3954], [7.559270000000001, 44.39558], [7.559, 44.39558], [7.559, 44.3954]]]}}, {"type": "Feature", "properties": {"NATIONALCADASTALREFERENCE": "X900_000300.24", "LABEL": "24"}, "geometry": {"type": "Polygon", "coordinates": [[[7.5592999999999995, 44.3954], [7.55957, 44.3954], [7.55957, 44.39558], [7.5592999999999995, 44.39558], [7.5592999999999995, 44.3954]]]}}, {"type": "Feature", "properties": {"NATIONALCADASTALREFERENCE": "X900_000300.25", "LABEL": "25"}, "geometry": {"type": "Polygon", "coordinates": [[[7.5596, 44.3954], [7.55987, 44.3954], [7.55987, 44.39558], [7.5596, 44.39558], [7.5596, 44.3954]]]}}, {"type": "Feature", "properties": {"NATIONALCADASTALREFERENCE": "X900_000300.26", "LABEL": "26"}, "geometry": {"type": "Polygon", "coordinates": [[[7.5599, 44.3954], [7.56017, 44.3954], [7.56017, 44.39558], [7.5599, 44.39558], [7.5599, 44.3954]]]}}, {"type": "Feature", "properties": {"NATIONALCADASTALREFERENCE": "X900_000300.27", "LABEL": "27"}, "geometry": {"type": "Polygon", "coordinates": [[[7.5602, 44.3954], [7.5604700000000005, 44.3954], [7.5604700000000005, 44.39558], [7.5602, 44.39558], [7.5602, 44.3954]]]}}, {"type": "Feature", "properties": {"NATIONALCADASTALREFERENCE": "X900_000300.28", "LABEL": "28"}, "geometry": {"type": "Polygon", "coordinates": [[[7.5605, 44.3954], [7.560770000000001, 44.3954], [7.560770000000001, 44.39558], [7.5605, 44.39558], [7.5605, 44.3954]]]}}, {"type": "Feature", "properties": {"NATIONALCADASTALREFERENCE": "X900_000300.29", "LABEL": "29"}, "geometry": {"type": "Polygon", "coordinates": [[[7.5607999999999995, 44.3954], [7.56107, 44.3954], [7.56107, 44.39558], [7.5607999999999995, 44.39558], [7.5607999999999995, 44.3954]]]}}, {"type": "Feature", "properties": {"NATIONALCADASTALREFERENCE": "X900_000300.30", "LABEL": "30"}, "geometry": {"type": "Polygon", "coordinates": [[[7.5611, 44.3954], [7.56137, 44.3954], [7.56137, 44.39558], [7.5611, 44.39558], [7.5611, 44.3954]]]}}, {"type": "Feature", "properties": {"NATIONALCADASTALREFERENCE": "X900_000300.31", "LABEL": "31"}, "geometry": {"type": "Polygon", "coordinates": [[[7.5584, 44.3956], [7.55867, 44.3956], [7.55867, 44.39578], [7.5584, 44.39578], [7.5584, 44.3956]]]}}, {"type": "Feature", "properties": {"NATIONALCADASTALREFERENCE": "X900_000300.32", "LABEL": "32"}, "geometry": {"type": "Polygon", "coordinates": [[[7.5587, 44.3956], [7.55897, 44.3956], [7.55897, 44.39578], [7.5587, 44.39578], [7.5587, 44.3956]]]}}, {"type": "Feature", "properties": {"NATIONALCADASTALREFERENCE": "X900_000300.33", "LABEL": "33"}, "geometry": {"type": "Polygon", "coordinates": [[[7.559, 44.3956], [7.559270000000001, 44.3956], [7.559270000000001, 44.39578], [7.559, 44.39578], [7.559, 44.3956]]]}}, {"type": "Feature", "properties": {"NATIONALCADASTALREFERENCE": "X900_000300.34", "LABEL": "34"}, "geometry": {"type": "Polygon", "coordinates": [[[7.5592999999999995, 44.3956], [7.55957, 44.3956], [7.55957, 44.39578], [7.5592999999999995, 44.39578], [7.5592999999999995, 44.3956]]]}}, {"type": "Feature", "properties": {"NATIONALCADASTALREFERENCE": "X900_000300.35", "LABEL": "35"}, "geometry": {"type": "Polygon", "coordinates": [[[7.5596, 44.3956], [7.55987, 44.3956], [7.55987, 44.39578], [7.5596, 44.39578], [7.5596, 44.3956]]]}}, {"type": "Feature", "properties": {"NATIONALCADASTALREFERENCE": "X900_000300.36", "LABEL": "36"}, "geometry": {"type": "Polygon", "coordinates": [[[7.5599, 44.3956], [7.56017, 44.3956], [7.56017, 44.39578], [7.5599, 44.39578], [7.5599, 44.3956]]]}}, {"type": "Feature", "properties": {"NATIONALCADASTALREFERENCE": "X900_000300.37", "LABEL": "37"}, "geometry": {"type": "Polygon", "coordinates": [[[7.5602, 44.3956], [7.5604700000000005, 44.3956], [7.5604700000000005, 44.39578], [7.5602, 44.39578], [7.5602, 44.3956]]]}}, {"type": "Feature", "properties": {"NATIONALCADASTALREFERENCE": "X900_000300.38", "LABEL": "38"}, "geometry": {"type": "Polygon", "coordinates": [[[7.5605, 44.3956], [7.560770000000001, 44.3956], [7.560770000000001, 44.39578], [7.5605, 44.39578], [7.5605, 44.3956]]]}}, {"type": "Feature", "properties": {"NATIONALCADASTALREFERENCE": "X900_000300.39", "LABEL": "39"}, "geometry": {"type": "Polygon", "coordinates": [[[7.5607999999999995, 44.3956], [7.56107, 44.3956], [7.56107, 44.39578], [7.5607999999999995, 44.39578], [7.5607999999999995, 44.3956]]]}}, {"type": "Feature", "properties": {"NATIONALCADASTALREFERENCE": "X900_000300.40", "LABEL": "40"}, "geometry": {"type": "Polygon", "coordinates": [[[7.5611, 44.3956], [7.56137, 44.3956], [7.56137, 44.39578], [7.5611, 44.39578], [7.5611, 44.3956]]]}}, {"type": "Feature", "properties": {"NATIONALCADASTALREFERENCE": "X900_000300.41", "LABEL": "41"}, "geometry": {"type": "Polygon", "coordinates": [[[7.5584, 44.3958], [7.55867, 44.3958], [7.55867, 44.39598], [7.5584, 44.39598], [7.5584, 44.3958]]]}}, {"type": "Feature", "properties": {"NATIONALCADASTALREFERENCE": "X900_000300.42", "LABEL": "42"}, "geometry": {"type": "Polygon", "coordinates": [[[7.5587, 44.3958], [7.55897, 44.3958], [7.55897, 44.39598], [7.5587, 44.39598], [7.5587, 44.3958]]]}}, {"type": "Feature", "properties": {"NATIONALCADASTALREFERENCE": "X900_000300.43", "LABEL": "43"}, "geometry": {"type": "Polygon", "coordinates": [[[7.559, 44.3958], [7.559270000000001, 44.3958], [7.559270000000001, 44.39598], [7.559, 44.39598], [7.559, 44.3958]]]}}, {"type": "Feature", "properties": {"NATIONALCADASTALREFERENCE": "X900_000300.44", "LABEL": "44"}, "geometry": {"type": "Polygon", "coordinates": [[[7.5592999999999995, 44.3958], [7.55957, 44.3958], [7.55957, 44.39598], [7.5592999999999995, 44.39598], [7.5592999999999995, 44.3958]]]}}, {"type": "Feature", "properties": {"NATIONALCADASTALREFERENCE": "X900_000300.45", "LABEL": "45"}, "geometry": {"type": "Polygon", "coordinates": [[[7.5596, 44.3958], [7.55987, 44.3958], [7.55987, 44.39598], [7.5596, 44.39598], [7.5596, 44.3958]]]}}, {"type": "Feature", "properties": {"NATIONALCADASTALREFERENCE": "X900_000300.46", "LABEL": "46"}, "geometry": {"type": "Polygon", "coordinates": [[[7.5599, 44.3958], [7.56017, 44.3958], [7.56017, 44.39598], [7.5599, 44.39598], [7.5599, 44.3958]]]}}, {"type": "Feature", "properties": {"NATIONALCADASTALREFERENCE": "X900_000300.47", "LABEL": "47"}, "geometry": {"type": "Polygon", "coordinates": [[[7.5602, 44.3958], [7.5604700000000005, 44.3958], [7.5604700000000005, 44.39598], [7.5602, 44.39598], [7.5602, 44.3958]]]}}, {"type": "Feature", "properties": {"NATIONALCADASTALREFERENCE": "X900_000300.48", "LABEL": "48"}, "geometry": {"type": "Polygon", "coordinates": [[[7.5605, 44.3958], [7.560770000000001, 44.3958], [7.560770000000001, 44.39598], [7.5605, 44.39598], [7.5605, 44.3958]]]}}, {"type": "Feature", "properties": {"NATIONALCADASTALREFERENCE": "X900_000300.49", "LABEL": "49"}, "geometry": {"type": "Polygon", "coordinates": [[[7.5607999999999995, 44.3958], [7.56107, 44.3958], [7.56107, 44.39598], [7.5607999999999995, 44.39598], [7.5607999999999995, 44.3958]]]}}, {"type": "Feature", "properties": {"NATIONALCADASTALREFERENCE": "X900_000300.50", "LABEL": "50"}, "geometry": {"type": "Polygon", "coordinates": [[[7.5611, 44.3958], [7.56137, 44.3958], [7.56137, 44.39598], [7.5611, 44.39598], [7.5611, 44.3958]]]}}, {"type": "Feature", "properties": {"NATIONALCADASTALREFERENCE": "X900_000400.1", "LABEL": "1"}, "geometry": {"type": "Polygon", "coordinates": [[[7.55, 44.3964], [7.55027, 44.3964], [7.55027, 44.39658], [7.55, 44.39658], [7.55, 44.3964]]]}}, {"type": "Feature", "properties": {"NATIONALCADASTALREFERENCE": "X900_000400.2", "LABEL": "2"}, "geometry": {"type": "Polygon", "coordinates": [[[7.5503, 44.3964], [7.5505700000000004, 44.3964], [7.5505700000000004, 44.39658], [7.5503, 44.39658], [7.5503, 44.3964]]]}}, {"type": "Feature", "properties": {"NATIONALCADASTALREFERENCE": "X900_000400.3", "LABEL": "3"}, "geometry": {"type": "Polygon", "coordinates": [[[7.5506, 44.3964], [7.550870000000001, 44.3964], [7.550870000000001, 44.39658], [7.5506, 44.39658], [7.5506, 44.3964]]]}}, {"type": "Feature", "properties": {"NATIONALCADASTALREFERENCE": "X900_000400.4", "LABEL": "4"}, "geometry": {"type": "Polygon", "coordinates": [[[7.5508999999999995, 44.3964], [7.55117, 44.3964], [7.55117, 44.39658], [7.5508999999999995, 44.39658], [7.5508999999999995, 44.3964]]]}}, {"type": "Feature", "properties": {"NATIONALCADASTALREFERENCE": "X900_000400.5", "LABEL": "5"}, "geometry": {"type": "Polygon", "coordinates": [[[7.5512, 44.3964], [7.55147, 44.3964], [7.55147, 44.39658], [7.5512, 44.39658], [7.5512, 44.3964]]]}}, {"type": "Feature", "properties": {"NATIONALCADASTALREFERENCE": "X900_000400.6", "LABEL": "6"}, "geometry": {"type": "Polygon", "coordinates": [[[7.5515, 44.3964], [7.55177, 44.3964], [7.55177, 44.39658], [7.5515, 44.39658], [7.5515, 44.3964]]]}}, {"type": "Feature", "properties": {"NATIONALCADASTALREFERENCE": "X900_000400.7", "LABEL": "7"}, "geometry": {"type": "Polygon", "coordinates": [[[7.5518, 44.3964], [7.5520700000000005, 44.3964], [7.5520700000000005, 44.39658], [7.5518, 44.39658], [7.5518, 44.3964]]]}}, {"type": "Feature", "properties": {"NATIONALCADASTALREFERENCE": "X900_000400.8", "LABEL": "8"}, "geometry": {"type": "Polygon", "coordinates": [[[7.5521, 44.3964], [7.552370000000001, 44.3964], [7.552370000000001, 44.39658], [7.5521, 44.39658], [7.5521, 44.3964]]]}}, {"type": "Feature", "properties": {"NATIONALCADASTALREFERENCE": "X900_000400.9", "LABEL": "9"}, "geometry": {"type": "Polygon", "coordinates": [[[7.5524, 44.3964], [7.55267, 44.3964], [7.55267, 44.39658], [7.5524, 44.39658], [7.5524, 44.3964]]]}}, {"type": "Feature", "properties": {"NATIONALCADASTALREFERENCE": "X900_000400.10", "LABEL": "10"}, "geometry": {"type": "Polygon", "coordinates": [[[7.5527, 44.3964], [7.55297, 44.3964], [7.55297, 44.39658], [7.5527, 44.39658], [7.5527, 44.3964]]]}}, {"type": "Feature", "properties": {"NATIONALCADASTALREFERENCE": "X900_000400.11", "LABEL": "11"}, "geometry": {"type": "Polygon", "coordinates": [[[7.55, 44.3966], [7.55027, 44.3966], [7.55027, 44.39678], [7.55, 44.39678], [7.55, 44.3966]]]}}, {"type": "Feature", "properties": {"NATIONALCADASTALREFERENCE": "X900_000400.12", "LABEL": "12"}, "geometry": {"type": "Polygon", "coordinates": [[[7.5503, 44.3966], [7.5505700000000004, 44.3966], [7.5505700000000004, 44.39678], [7.5503, 44.39678], [7.5503, 44.3966]]]}}, {"type": "Feature", "properties": {"NATIONALCADASTALREFERENCE": "X900_000400.13", "LABEL": "13"}, "geometry": {"type": "Polygon", "coordinates": [[[7.5506, 44.3966], [7.550870000000001, 44.3966], [7.550870000000001, 44.39678], [7.5506, 44.39678], [7.5506, 44.3966]]]}}, {"type": "Feature", "properties": {"NATIONALCADASTALREFERENCE": "X900_000400.14", "LABEL": "14"}, "geometry": {"type": "Polygon", "coordinates": [[[7.5508999999999995, 44.3966], [7.55117, 44.3966], [7.55117, 44.39678], [7.5508999999999995, 44.39678], [7.5508999999999995, 44.3966]]]}}, {"type": "Feature", "properties": {"NATIONALCADASTALREFERENCE": "X900_000400.15", "LABEL": "15"}, "geometry": {"type": "Polygon", "coordinates": [[[7.5512, 44.3966], [7.55147, 44.3966], [7.55147, 44.39678], [7.5512, 44.39678], [7.5512, 44.3966]]]}}, {"type": "Feature", "properties": {"NATIONALCADASTALREFERENCE": "X900_000400.16", "LABEL": "16"}, "geometry": {"type": "Polygon", "coordinates": [[[7.5515, 44.3966], [7.55177, 44.3966], [7.55177, 44.39678], [7.5515, 44.39678], [7.5515, 44.3966]]]}}, {"type": "Feature", "properties": {"NATIONALCADASTALREFERENCE": "X900_000400.17", "LABEL": "17"}, "geometry": {"type": "Polygon", "coordinates": [[[7.5518, 44.3966], [7.5520700000000005, 44.3966], [7.5520700000000005, 44.39678], [7.5518, 44.39678], [7.5518, 44.3966]]]}}, {"type": "Feature", "properties": {"NATIONALCADASTALREFERENCE": "X900_000400.18", "LABEL": "18"}, "geometry": {"type": "Polygon", "coordinates": [[[7.5521, 44.3966], [7.552370000000001, 44.3966], [7.552370000000001, 44.39678], [7.5521, 44.39678], [7.5521, 44.3966]]]}}, {"type": "Feature", "properties": {"NATIONALCADASTALREFERENCE": "X900_000400.19", "LABEL": "19"}, "geometry": {"type": "Polygon", "coordinates": [[[7.5524, 44.3966], [7.55267, 44.3966], [7.55267, 44.39678], [7.5524, 44.39678], [7.5524, 44.3966]]]}}, {"type": "Feature", "properties": {"NATIONALCADASTALREFERENCE": "X900_000400.20", "LABEL": "20"}, "geometry": {"type": "Polygon", "coordinates": [[[7.5527, 44.3966], [7.55297, 44.3966], [7.55297, 44.39678], [7.5527, 44.39678], [7.5527, 44.3966]]]}}, {"type": "Feature", "properties": {"NATIONALCADASTALREFERENCE": "X900_000400.21", "LABEL": "21"}, "geometry": {"type": "Polygon", "coordinates": [[[7.55, 44.3968], [7.55027, 44.3968], [7.55027, 44.39698], [7.55, 44.39698], [7.55, 44.3968]]]}}, {"type": "Feature", "properties": {"NATIONALCADASTALREFERENCE": "X900_000400.22", "LABEL": "22"}, "geometry": {"type": "Polygon", "coordinates": [[[7.5503, 44.3968], [7.5505700000000004, 44.3968], [7.5505700000000004, 44.39698], [7.5503, 44.39698], [7.5503, 44.3968]]]}}, {"type": "Feature", "properties": {"NATIONALCADASTALREFERENCE": "X900_000400.23", "LABEL": "23"}, "geometry": {"type": "Polygon", "coordinates": [[[7.5506, 44.3968], [7.550870000000001, 44.3968], [7.550870000000001, 44.39698], [7.5506, 44.39698], [7.5506, 44.3968]]]}}, {"type": "Feature", "properties": {"NATIONALCADASTALREFERENCE": "X900_000400.24", "LABEL": "24"}, "geometry": {"type": "Polygon", "coordinates": [[[7.5508999999999995, 44.3968], [7.55117, 44.3968], [7.55117, 44.39698], [7.5508999999999995, 44.39698], [7.5508999999999995, 44.3968]]]}}, {"type": "Feature", "properties": {"NATIONALCADASTALREFERENCE": "X900_000400.25", "LABEL": "25"}, "geometry": {"type": "Polygon", "coordinates": [[[7.5512, 44.3968], [7.55147, 44.3968], [7.55147, 44.39698], [7.5512, 44.39698], [7.5512, 44.3968]]]}}, {"type": "Feature", "properties": {"NATIONALCADASTALREFERENCE": "X900_000400.26", "LABEL": "26"}, "geometry": {"type": "Polygon", "coordinates": [[[7.5515, 44.3968], [7.55177, 44.3968], [7.55177, 44.39698], [7.5515, 44.39698], [7.5515, 44.3968]]]}}, {"type": "Feature", "properties": {"NATIONALCADASTALREFERENCE": "X900_000400.27", "LABEL": "27"}, "geometry": {"type": "Polygon", "coordinates": [[[7.5518, 44.3968], [7.5520700000000005, 44.3968], [7.5520700000000005, 44.39698], [7.5518, 44.39698], [7.5518, 44.3968]]]}}, {"type": "Feature", "properties": {"NATIONALCADASTALREFERENCE": "X900_000400.28", "LABEL": "28"}, "geometry": {"type": "Polygon", "coordinates": [[[7.5521, 44.3968], [7.552370000000001, 44.3968], [7.552370000000001, 44.39698], [7.5521, 44.39698], [7.5521, 44.3968]]]}}, {"type": "Feature", "properties": {"NATIONALCADASTALREFERENCE": "X900_000400.29", "LABEL": "29"}, "geometry": {"type": "Polygon", "coordinates": [[[7.5524, 44.3968], [7.55267, 44.3968], [7.55267, 44.39698], [7.5524, 44.39698], [7.5524, 44.3968]]]}}, {"type": "Feature", "properties": {"NATIONALCADASTALREFERENCE": "X900_000400.30", "LABEL": "30"}, "geometry": {"type": "Polygon", "coordinates": [[[7.5527, 44.3968], [7.55297, 44.3968], [7.55297, 44.39698], [7.5527, 44.39698], [7.5527, 44.3968]]]}}, {"type": "Feature", "properties": {"NATIONALCADASTALREFERENCE": "X900_000400.31", "LABEL": "31"}, "geometry": {"type": "Polygon", "coordinates": [[[7.55, 44.397], [7.55027, 44.397], [7.55027, 44.39718], [7.55, 44.39718], [7.55, 44.397]]]}}, {"type": "Feature", "properties": {"NATIONALCADASTALREFERENCE": "X900_000400.32", "LABEL": "32"}, "geometry": {"type": "Polygon", "coordinates": [[[7.5503, 44.397], [7.5505700000000004, 44.397], [7.5505700000000004, 44.39718], [7.5503, 44.39718], [7.5503, 44.397]]]}}, {"type": "Feature", "properties": {"NATIONALCADASTALREFERENCE": "X900_000400.33", "LABEL": "33"}, "geometry": {"type": "Polygon", "coordinates": [[[7.5506, 44.397], [7.550870000000001, 44.397], [7.550870000000001, 44.39718], [7.5506, 44.39718], [7.5506, 44.397]]]}}, {"type": "Feature", "properties": {"NATIONALCADASTALREFERENCE": "X900_000400.34", "LABEL": "34"}, "geometry": {"type": "Polygon", "coordinates": [[[7.5508999999999995, 44.397], [7.55117, 44.397], [7.55117, 44.39718], [7.5508999999999995, 44.39718], [7.5508999999999995, 44.397]]]}}, {"type": "Feature", "properties": {"NATIONALCADASTALREFERENCE": "X900_000400.35", "LABEL": "35"}, "geometry": {"type": "Polygon", "coordinates": [[[7.5512, 44.397], [7.55147, 44.397], [7.55147, 44.39718], [7.5512, 44.39718], [7.5512, 44.397]]]}}, {"type": "Feature", "properties": {"NATIONALCADASTALREFERENCE": "X900_000400.36", "LABEL": "36"}, "geometry": {"type": "Polygon", "coordinates": [[[7.5515, 44.397], [7.55177, 44.397], [7.55177, 44.39718], [7.5515, 44.39718], [7.5515, 44.397]]]}}, {"type": "Feature", "properties": {"NATIONALCADASTALREFERENCE": "X900_000400.37", "LABEL": "37"}, "geometry": {"type": "Polygon", "coordinates": [[[7.5518, 44.397], [7.5520700000000005, 44.397], [7.5520700000000005, 44.39718], [7.5518, 44.39718], [7.5518, 44.397]]]}}, {"type": "Feature", "properties": {"NATIONALCADASTALREFERENCE": "X900_000400.38", "LABEL": "38"}, "geometry": {"type": "Polygon", "coordinates": [[[7.5521, 44.397], [7.552370000000001, 44.397], [7.552370000000001, 44.39718], [7.5521, 44.39718], [7.5521, 44.397]]]}}, {"type": "Feature", "properties": {"NATIONALCADASTALREFERENCE": "X900_000400.39", "LABEL": "39"}, "geometry": {"type": "Polygon", "coordinates": [[[7.5524, 44.397], [7.55267, 44.397], [7.55267, 44.39718], [7.5524, 44.39718], [7.5524, 44.397]]]}}, {"type": "Feature", "properties": {"NATIONALCADASTALREFERENCE": "X900_000400.40", "LABEL": "40"}, "geometry": {"type": "Polygon", "coordinates": [[[7.5527, 44.397], [7.55297, 44.397], [7.55297, 44.39718], [7.5527, 44.39718], [7.5527, 44.397]]]}}, {"type": "Feature", "properties": {"NATIONALCADASTALREFERENCE": "X900_000400.41", "LABEL": "41"}, "geometry": {"type": "Polygon", "coordinates": [[[7.55, 44.3972], [7.55027, 44.3972], [7.55027, 44.39738], [7.55, 44.39738], [7.55, 44.3972]]]}}, {"type": "Feature", "properties": {"NATIONALCADASTALREFERENCE": "X900_000400.42", "LABEL": "42"}, "geometry": {"type": "Polygon", "coordinates": [[[7.5503, 44.3972], [7.5505700000000004, 44.3972], [7.5505700000000004, 44.39738], [7.5503, 44.39738], [7.5503, 44.3972]]]}}, {"type": "Feature", "properties": {"NATIONALCADASTALREFERENCE": "X900_000400.43", "LABEL": "43"}, "geometry": {"type": "Polygon", "coordinates": [[[7.5506, 44.3972], [7.550870000000001, 44.3972], [7.550870000000001, 44.39738], [7.5506, 44.39738], [7.5506, 44.3972]]]}}, {"type": "Feature", "properties": {"NATIONALCADASTALREFERENCE": "X900_000400.44", "LABEL": "44"}, "geometry": {"type": "Polygon", "coordinates": [[[7.5508999999999995, 44.3972], [7.55117, 44.3972], [7.55117, 44.39738], [7.5508999999999995, 44.39738], [7.5508999999999995, 44.3972]]]}}, {"type": "Feature", "properties": {"NATIONALCADASTALREFERENCE": "X900_000400.45", "LABEL": "45"}, "geometry": {"type": "Polygon", "coordinates": [[[7.5512, 44.3972], [7.55147, 44.3972], [7.55147, 44.39738], [7.5512, 44.39738], [7.5512, 44.3972]]]}}, {"type": "Feature", "properties": {"NATIONALCADASTALREFERENCE": "X900_000400.46", "LABEL": "46"}, "geometry": {"type": "Polygon", "coordinates": [[[7.5515, 44.3972], [7.55177, 44.3972], [7.55177, 44.39738], [7.5515, 44.39738], [7.5515, 44.3972]]]}}, {"type": "Feature", "properties": {"NATIONALCADASTALREFERENCE": "X900_000400.47", "LABEL": "47"}, "geometry": {"type": "Polygon", "coordinates": [[[7.5518, 44.3972], [7.5520700000000005, 44.3972], [7.5520700000000005, 44.39738], [7.5518, 44.39738], [7.5518, 44.3972]]]}}, {"type": "Feature", "properties": {"NATIONALCADASTALREFERENCE": "X900_000400.48", "LABEL": "48"}, "geometry": {"type": "Polygon", "coordinates": [[[7.5521, 44.3972], [7.552370000000001, 44.3972], [7.552370000000001, 44.39738], [7.5521, 44.39738], [7.5521, 44.3972]]]}}, {"type": "Feature", "properties": {"NATIONALCADASTALREFERENCE": "X900_000400.49", "LABEL": "49"}, "geometry": {"type": "Polygon", "coordinates": [[[7.5524, 44.3972], [7.55267, 44.3972], [7.55267, 44.39738], [7.5524, 44.39738], [7.5524, 44.3972]]]}}, {"type": "Feature", "properties": {"NATIONALCADASTALREFERENCE": "X900_000400.50", "LABEL": "50"}, "geometry": {"type": "Polygon", "coordinates": [[[7.5527, 44.3972], [7.55297, 44.3972], [7.55297, 44.39738], [7.5527, 44.39738], [7.5527, 44.3972]]]}}, {"type": "Feature", "properties": {"NATIONALCADASTALREFERENCE": "X900_000500.1", "LABEL": "1"}, "geometry": {"type": "Polygon", "coordinates": [[[7.5542, 44.3964], [7.55447, 44.3964], [7.55447, 44.39658], [7.5542, 44.39658], [7.5542, 44.3964]]]}}, {"type": "Feature", "properties": {"NATIONALCADASTALREFERENCE": "X900_000500.2", "LABEL": "2"}, "geometry": {"type": "Polygon", "coordinates": [[[7.5545, 44.3964], [7.55477, 44.3964], [7.55477, 44.39658], [7.5545, 44.39658], [7.5545, 44.3964]]]}}, {"type": "Feature", "properties": {"NATIONALCADASTALREFERENCE": "X900_000500.3", "LABEL": "3"}, "geometry": {"type": "Polygon", "coordinates": [[[7.5548, 44.3964], [7.555070000000001, 44.3964], [7.555070000000001, 44.39658], [7.5548, 44.39658], [7.5548, 44.3964]]]}}, {"type": "Feature", "properties": {"NATIONALCADASTALREFERENCE": "X900_000500.4", "LABEL": "4"}, "geometry": {"type": "Polygon", "coordinates": [[[7.5550999999999995, 44.3964], [7.55537, 44.3964], [7.55537, 44.39658], [7.5550999999999995, 44.39658], [7.5550999999999995, 44.3964]]]}}, {"type": "Feature", "properties": {"NATIONALCADASTALREFERENCE": "X900_000500.5", "LABEL": "5"}, "geometry": {"type": "Polygon", "coordinates": [[[7.5554, 44.3964], [7.55567, 44.3964], [7.55567, 44.39658], [7.5554, 44.39658], [7.5554, 44.3964]]]}}, {"type": "Feature", "properties": {"NATIONALCADASTALREFERENCE": "X900_000500.6", "LABEL": "6"}, "geometry": {"type": "Polygon", "coordinates": [[[7.5557, 44.3964], [7.55597, 44.3964], [7.55597, 44.39658], [7.5557, 44.39658], [7.5557, 44.3964]]]}}, {"type": "Feature", "properties": {"NATIONALCADASTALREFERENCE": "X900_000500.7", "LABEL": "7"}, "geometry": {"type": "Polygon", "coordinates": [[[7.556, 44.3964], [7.5562700000000005, 44.3964], [7.5562700000000005, 44.39658], [7.556, 44.39658], [7.556, 44.3964]]]}}, {"type": "Feature", "properties": {"NATIONALCADASTALREFERENCE": "X900_000500.8", "LABEL": "8"}, "geometry": {"type": "Polygon", "coordinates": [[[7.5563, 44.3964], [7.556570000000001, 44.3964], [7.556570000000001, 44.39658], [7.5563, 44.39658], [7.5563, 44.3964]]]}}, {"type": "Feature", "properties": {"NATIONALCADASTALREFERENCE": "X900_000500.9", "LABEL": "9"}, "geometry": {"type": "Polygon", "coordinates": [[[7.5565999999999995, 44.3964], [7.55687, 44.3964], [7.55687, 44.39658], [7.5565999999999995, 44.39658], [7.5565999999999995, 44.3964]]]}}, {"type": "Feature", "properties": {"NATIONALCADASTALREFERENCE": "X900_000500.10", "LABEL": "10"}, "geometry": {"type": "Polygon", "coordinates": [[[7.5569, 44.3964], [7.55717, 44.3964], [7.55717, 44.39658], [7.5569, 44.39658], [7.5569, 44.3964]]]}}, {"type": "Feature", "properties": {"NATIONALCADASTALREFERENCE": "X900_000500.11", "LABEL": "11"}, "geometry": {"type": "Polygon", "coordinates": [[[7.5542, 44.3966], [7.55447, 44.3966], [7.55447, 44.39678], [7.5542, 44.39678], [7.5542, 44.3966]]]}}, {"type": "Feature", "properties": {"NATIONALCADASTALREFERENCE": "X900_000500.12", "LABEL": "12"}, "geometry": {"type": "Polygon", "coordinates": [[[7.5545, 44.3966], [7.55477, 44.3966], [7.55477, 44.39678], [7.5545, 44.39678], [7.5545, 44.3966]]]}}, {"type": "Feature", "properties": {"NATIONALCADASTALREFERENCE": "X900_000500.13", "LABEL": "13"}, "geometry": {"type": "Polygon", "coordinates": [[[7.5548, 44.3966], [7.555070000000001, 44.3966], [7.555070000000001, 44.39678], [7.5548, 44.39678], [7.5548, 44.3966]]]}}, {"type": "Feature", "properties": {"NATIONALCADASTALREFERENCE": "X900_000500.14", "LABEL": "14"}, "geometry": {"type": "Polygon", "coordinates": [[[7.5550999999999995, 44.3966], [7.55537, 44.3966], [7.55537, 44.39678], [7.5550999999999995, 44.39678], [7.5550999999999995, 44.3966]]]}}, {"type": "Feature", "properties": {"NATIONALCADASTALREFERENCE": "X900_000500.15", "LABEL": "15"}, "geometry": {"type": "Polygon", "coordinates": [[[7.5554, 44.3966], [7.55567, 44.3966], [7.55567, 44.39678], [7.5554, 44.39678], [7.5554, 44.3966]]]}}, {"type": "Feature", "properties": {"NATIONALCADASTALREFERENCE": "X900_000500.16", "LABEL": "16"}, "geometry": {"type": "Polygon", "coordinates": [[[7.5557, 44.3966], [7.55597, 44.3966], [7.55597, 44.39678], [7.5557, 44.39678], [7.5557, 44.3966]]]}}, {"type": "Feature", "properties": {"NATIONALCADASTALREFERENCE": "X900_000500.17", "LABEL": "17"}, "geometry": {"type": "Polygon", "coordinates": [[[7.556, 44.3966], [7.5562700000000005, 44.3966], [7.5562700000000005, 44.39678], [7.556, 44.39678], [7.556, 44.3966]]]}}, {"type": "Feature", "properties": {"NATIONALCADASTALREFERENCE": "X900_000500.18", "LABEL": "18"}, "geometry": {"type": "Polygon", "coordinates": [[[7.5563, 44.3966], [7.556570000000001, 44.3966], [7.556570000000001, 44.39678], [7.5563, 44.39678], [7.5563, 44.3966]]]}}, {"type": "Feature", "properties": {"NATIONALCADASTALREFERENCE": "X900_000500.19", "LABEL": "19"}, "geometry": {"type": "Polygon", "coordinates": [[[7.5565999999999995, 44.3966], [7.55687, 44.3966], [7.55687, 44.39678], [7.5565999999999995, 44.39678], [7.5565999999999995, 44.3966]]]}}, {"type": "Feature", "properties": {"NATIONALCADASTALREFERENCE": "X900_000500.20", "LABEL": "20"}, "geometry": {"type": "Polygon", "coordinates": [[[7.5569, 44.3966], [7.55717, 44.3966], [7.55717, 44.39678], [7.5569, 44.39678], [7.5569, 44.3966]]]}}, {"type": "Feature", "properties": {"NATIONALCADASTALREFERENCE": "X900_000500.21", "LABEL": "21"}, "geometry": {"type": "Polygon", "coordinates": [[[7.5542, 44.3968], [7.55447, 44.3968], [7.55447, 44.39698], [7.5542, 44.39698], [7.5542, 44.3968]]]}}, {"type": "Feature", "properties": {"NATIONALCADASTALREFERENCE": "X900_000500.22", "LABEL": "22"}, "geometry": {"type": "Polygon", "coordinates": [[[7.5545, 44.3968], [7.55477, 44.3968], [7.55477, 44.39698], [7.5545, 44.39698], [7.5545, 44.3968]]]}}, {"type": "Feature", "properties": {"NATIONALCADASTALREFERENCE": "X900_000500.23", "LABEL": "23"}, "geometry": {"type": "Polygon", "coordinates": [[[7.5548, 44.3968], [7.555070000000001, 44.3968], [7.555070000000001, 44.39698], [7.5548, 44.39698], [7.5548, 44.3968]]]}}, {"type": "Feature", "properties": {"NATIONALCADASTALREFERENCE": "X900_000500.24", "LABEL": "24"}, "geometry": {"type": "Polygon", "coordinates": [[[7.5550999999999995, 44.3968], [7.55537, 44.3968], [7.55537, 44.39698], [7.5550999999999995, 44.39698], [7.5550999999999995, 44.3968]]]}}, {"type": "Feature", "properties": {"NATIONALCADASTALREFERENCE": "X900_000500.25", "LABEL": "25"}, "geometry": {"type": "Polygon", "coordinates": [[[7.5554, 44.3968], [7.55567, 44.3968], [7.55567, 44.39698], [7.5554, 44.39698], [7.5554, 44.3968]]]}}, {"type": "Feature", "properties": {"NATIONALCADASTALREFERENCE": "X900_000500.26", "LABEL": "26"}, "geometry": {"type": "Polygon", "coordinates": [[[7.5557, 44.3968], [7.55597, 44.3968], [7.55597, 44.39698], [7.5557, 44.39698], [7.5557, 44.3968]]]}}, {"type": "Feature", "properties": {"NATIONALCADASTALREFERENCE": "X900_000500.27", "LABEL": "27"}, "geometry": {"type": "Polygon", "coordinates": [[[7.556, 44.3968], [7.5562700000000005, 44.3968], [7.5562700000000005, 44.39698], [7.556, 44.39698], [7.556, 44.3968]]]}}, {"type": "Feature", "properties": {"NATIONALCADASTALREFERENCE": "X900_000500.28", "LABEL": "28"}, "geometry": {"type": "Polygon", "coordinates": [[[7.5563, 44.3968], [7.556570000000001, 44.3968], [7.556570000000001, 44.39698], [7.5563, 44.39698], [7.5563, 44.3968]]]}}, {"type": "Feature", "properties": {"NATIONALCADASTALREFERENCE": "X900_000500.29", "LABEL": "29"}, "geometry": {"type": "Polygon", "coordinates": [[[7.5565999999999995, 44.3968], [7.55687, 44.3968], [7.55687, 44.39698], [7.5565999999999995, 44.39698], [7.5565999999999995, 44.3968]]]}}, {"type": "Feature", "properties": {"NATIONALCADASTALREFERENCE": "X900_000500.30", "LABEL": "30"}, "geometry": {"type": "Polygon", "coordinates": [[[7.5569, 44.3968], [7.55717, 44.3968], [7.55717, 44.39698], [7.5569, 44.39698], [7.5569, 44.3968]]]}}, {"type": "Feature", "properties": {"NATIONALCADASTALREFERENCE": "X900_000500.31", "LABEL": "31"}, "geometry": {"type": "Polygon", "coordinates": [[[7.5542, 44.397], [7.55447, 44.397], [7.55447, 44.39718], [7.5542, 44.39718], [7.5542, 44.397]]]}}, {"type": "Feature", "properties": {"NATIONALCADASTALREFERENCE": "X900_000500.32", "LABEL": "32"}, "geometry": {"type": "Polygon", "coordinates": [[[7.5545, 44.397], [7.55477, 44.397], [7.55477, 44.39718], [7.5545, 44.39718], [7.5545, 44.397]]]}}, {"type": "Feature", "properties": {"NATIONALCADASTALREFERENCE": "X900_000500.33", "LABEL": "33"}, "geometry": {"type": "Polygon", "coordinates": [[[7.5548, 44.397], [7.555070000000001, 44.397], [7.555070000000001, 44.39718], [7.5548, 44.39718], [7.5548, 44.397]]]}}, {"type": "Feature", "properties": {"NATIONALCADASTALREFERENCE": "X900_000500.34", "LABEL": "34"}, "geometry": {"type": "Polygon", "coordinates": [[[7.5550999999999995, 44.397], [7.55537, 44.397], [7.55537, 44.39718], [7.5550999999999995, 44.39718], [7.5550999999999995, 44.397]]]}}, {"type": "Feature", "properties": {"NATIONALCADASTALREFERENCE": "X900_000500.35", "LABEL": "35"}, "geometry": {"type": "Polygon", "coordinates": [[[7.5554, 44.397], [7.55567, 44.397], [7.55567, 44.39718], [7.5554, 44.39718], [7.5554, 44.397]]]}}, {"type": "Feature", "properties": {"NATIONALCADASTALREFERENCE": "X900_000500.36", "LABEL": "36"}, "geometry": {"type": "Polygon", "coordinates": [[[7.5557, 44.397], [7.55597, 44.397], [7.55597, 44.39718], [7.5557, 44.39718], [7.5557, 44.397]]]}}, {"type": "Feature", "properties": {"NATIONALCADASTALREFERENCE": "X900_000500.37", "LABEL": "37"}, "geometry": {"type": "Polygon", "coordinates": [[[7.556, 44.397], [7.5562700000000005, 44.397], [7.5562700000000005, 44.39718], [7.556, 44.39718], [7.556, 44.397]]]}}, {"type": "Feature", "properties": {"NATIONALCADASTALREFERENCE": "X900_000500.38", "LABEL": "38"}, "geometry": {"type": "Polygon", "coordinates": [[[7.5563, 44.397], [7.556570000000001, 44.397], [7.556570000000001, 44.39718], [7.5563, 44.39718], [7.5563, 44.397]]]}}, {"type": "Feature", "properties": {"NATIONALCADASTALREFERENCE": "X900_000500.39", "LABEL": "39"}, "geometry": {"type": "Polygon", "coordinates": [[[7.5565999999999995, 44.397], [7.55687, 44.397], [7.55687, 44.39718], [7.5565999999999995, 44.39718], [7.5565999999999995, 44.397]]]}}, {"type": "Feature", "properties": {"NATIONALCADASTALREFERENCE": "X900_000500.40", "LABEL": "40"}, "geometry": {"type": "Polygon", "coordinates": [[[7.5569, 44.397], [7.55717, 44.397], [7.55717, 44.39718], [7.5569, 44.39718], [7.5569, 44.397]]]}}, {"type": "Feature", "properties": {"NATIONALCADASTALREFERENCE": "X900_000500.41", "LABEL": "41"}, "geometry": {"type": "Polygon", "coordinates": [[[7.5542, 44.3972], [7.55447, 44.3972], [7.55447, 44.39738], [7.5542, 44.39738], [7.5542, 44.3972]]]}}, {"type": "Feature", "properties": {"NATIONALCADASTALREFERENCE": "X900_000500.42", "LABEL": "42"}, "geometry": {"type": "Polygon", "coordinates": [[[7.5545, 44.3972], [7.55477, 44.3972], [7.55477, 44.39738], [7.5545, 44.39738], [7.5545, 44.3972]]]}}, {"type": "Feature", "properties": {"NATIONALCADASTALREFERENCE": "X900_000500.43", "LABEL": "43"}, "geometry": {"type": "Polygon", "coordinates": [[[7.5548, 44.3972], [7.555070000000001, 44.3972], [7.555070000000001, 44.39738], [7.5548, 44.39738], [7.5548, 44.3972]]]}}, {"type": "Feature", "properties": {"NATIONALCADASTALREFERENCE": "X900_000500.44", "LABEL": "44"}, "geometry": {"type": "Polygon", "coordinates": [[[7.5550999999999995, 44.3972], [7.55537, 44.3972], [7.55537, 44.39738], [7.5550999999999995, 44.39738], [7.5550999999999995, 44.3972]]]}}, {"type": "Feature", "properties": {"NATIONALCADASTALREFERENCE": "X900_000500.45", "LABEL": "45"}, "geometry": {"type": "Polygon", "coordinates": [[[7.5554, 44.3972], [7.55567, 44.3972], [7.55567, 44.39738], [7.5554, 44.39738], [7.5554, 44.3972]]]}}, {"type": "Feature", "properties": {"NATIONALCADASTALREFERENCE": "X900_000500.46", "LABEL": "46"}, "geometry": {"type": "Polygon", "coordinates": [[[7.5557, 44.3972], [7.55597, 44.3972], [7.55597, 44.39738], [7.5557, 44.39738], [7.5557, 44.3972]]]}}, {"type": "Feature", "properties": {"NATIONALCADASTALREFERENCE": "X900_000500.47", "LABEL": "47"}, "geometry": {"type": "Polygon", "coordinates": [[[7.556, 44.3972], [7.5562700000000005, 44.3972], [7.5562700000000005, 44.39738], [7.556, 44.39738], [7.556, 44.3972]]]}}, {"type": "Feature", "properties": {"NATIONALCADASTALREFERENCE": "X900_000500.48", "LABEL": "48"}, "geometry": {"type": "Polygon", "coordinates": [[[7.5563, 44.3972], [7.556570000000001, 44.3972], [7.556570000000001, 44.39738], [7.5563, 44.39738], [7.5563, 44.3972]]]}}, {"type": "Feature", "properties": {"NATIONALCADASTALREFERENCE": "X900_000500.49", "LABEL": "49"}, "geometry": {"type": "Polygon", "coordinates": [[[7.5565999999999995, 44.3972], [7.55687, 44.3972], [7.55687, 44.39738], [7.5565999999999995, 44.39738], [7.5565999999999995, 44.3972]]]}}, {"type": "Feature", "properties": {"NATIONALCADASTALREFERENCE": "X900_000500.50", "LABEL": "50"}, "geometry": {"type": "Polygon", "coordinates": [[[7.5569, 44.3972], [7.55717, 44.3972], [7.55717, 44.39738], [7.5569, 44.39738], [7.5569, 44.3972]]]}}, {"type": "Feature", "properties": {"NATIONALCADASTALREFERENCE": "X900_000600.1", "LABEL": "1"}, "geometry": {"type": "Polygon", "coordinates": [[[7.5584, 44.3964], [7.55867, 44.3964], [7.55867, 44.39658], [7.5584, 44.39658], [7.5584, 44.3964]]]}}, {"type": "Feature", "properties": {"NATIONALCADASTALREFERENCE": "X900_000600.2", "LABEL": "2"}, "geometry": {"type": "Polygon", "coordinates": [[[7.5587, 44.3964], [7.55897, 44.3964], [7.55897, 44.39658], [7.5587, 44.39658], [7.5587, 44.3964]]]}}, {"type": "Feature", "properties": {"NATIONALCADASTALREFERENCE": "X900_000600.3", "LABEL": "3"}, "geometry": {"type": "Polygon", "coordinates": [[[7.559, 44.3964], [7.559270000000001, 44.3964], [7.559270000000001, 44.39658], [7.559, 44.39658], [7.559, 44.3964]]]}}, {"type": "Feature", "properties": {"NATIONALCADASTALREFERENCE": "X900_000600.4", "LABEL": "4"}, "geometry": {"type": "Polygon", "coordinates": [[[7.5592999999999995, 44.3964], [7.55957, 44.3964], [7.55957, 44.39658], [7.5592999999999995, 44.39658], [7.5592999999999995, 44.3964]]]}}, {"type": "Feature", "properties": {"NATIONALCADASTALREFERENCE": "X900_000600.5", "LABEL": "5"}, "geometry": {"type": "Polygon", "coordinates": [[[7.5596, 44.3964], [7.55987, 44.3964], [7.55987, 44.39658], [7.5596, 44.39658], [7.5596, 44.3964]]]}}, {"type": "Feature", "properties": {"NATIONALCADASTALREFERENCE": "X900_000600.6", "LABEL": "6"}, "geometry": {"type": "Polygon", "coordinates": [[[7.5599, 44.3964], [7.56017, 44.3964], [7.56017, 44.39658], [7.5599, 44.39658], [7.5599, 44.3964]]]}}, {"type": "Feature", "properties": {"NATIONALCADASTALREFERENCE": "X900_000600.7", "LABEL": "7"}, "geometry": {"type": "Polygon", "coordinates": [[[7.5602, 44.3964], [7.5604700000000005, 44.3964], [7.5604700000000005, 44.39658], [7.5602, 44.39658], [7.5602, 44.3964]]]}}, {"type": "Feature", "properties": {"NATIONALCADASTALREFERENCE": "X900_000600.8", "LABEL": "8"}, "geometry": {"type": "Polygon", "coordinates": [[[7.5605, 44.3964], [7.560770000000001, 44.3964], [7.560770000000001, 44.39658], [7.5605, 44.39658], [7.5605, 44.3964]]]}}, {"type": "Feature", "properties": {"NATIONALCADASTALREFERENCE": "X900_000600.9", "LABEL": "9"}, "geometry": {"type": "Polygon", "coordinates": [[[7.5607999999999995, 44.3964], [7.56107, 44.3964], [7.56107, 44.39658], [7.5607999999999995, 44.39658], [7.5607999999999995, 44.3964]]]}}, {"type": "Feature", "properties": {"NATIONALCADASTALREFERENCE": "X900_000600.10", "LABEL": "10"}, "geometry": {"type": "Polygon", "coordinates": [[[7.5611, 44.3964], [7.56137, 44.3964], [7.56137, 44.39658], [7.5611, 44.39658], [7.5611, 44.3964]]]}}, {"type": "Feature", "properties": {"NATIONALCADASTALREFERENCE": "X900_000600.11", "LABEL": "11"}, "geometry": {"type": "Polygon", "coordinates": [[[7.5584, 44.3966], [7.55867, 44.3966], [7.55867, 44.39678], [7.5584, 44.39678], [7.5584, 44.3966]]]}}, {"type": "Feature", "properties": {"NATIONALCADASTALREFERENCE": "X900_000600.12", "LABEL": "12"}, "geometry": {"type": "Polygon", "coordinates": [[[7.5587, 44.3966], [7.55897, 44.3966], [7.55897, 44.39678], [7.5587, 44.39678], [7.5587, 44.3966]]]}}, {"type": "Feature", "properties": {"NATIONALCADASTALREFERENCE": "X900_000600.13", "LABEL": "13"}, "geometry": {"type": "Polygon", "coordinates": [[[7.559, 44.3966], [7.559270000000001, 44.3966], [7.559270000000001, 44.39678], [7.559, 44.39678], [7.559, 44.3966]]]}}, {"type": "Feature", "properties": {"NATIONALCADASTALREFERENCE": "X900_000600.14", "LABEL": "14"}, "geometry": {"type": "Polygon", "coordinates": [[[7.5592999999999995, 44.3966], [7.55957, 44.3966], [7.55957, 44.39678], [7.5592999999999995, 44.39678], [7.5592999999999995, 44.3966]]]}}, {"type": "Feature", "properties": {"NATIONALCADASTALREFERENCE": "X900_000600.15", "LABEL": "15"}, "geometry": {"type": "Polygon", "coordinates": [[[7.5596, 44.3966], [7.55987, 44.3966], [7.55987, 44.39678], [7.5596, 44.39678], [7.5596, 44.3966]]]}}, {"type": "Feature", "properties": {"NATIONALCADASTALREFERENCE": "X900_000600.16", "LABEL": "16"}, "geometry": {"type": "Polygon", "coordinates": [[[7.5599, 44.3966], [7.56017, 44.3966], [7.56017, 44.39678], [7.5599, 44.39678], [7.5599, 44.3966]]]}}, {"type": "Feature", "properties": {"NATIONALCADASTALREFERENCE": "X900_000600.17", "LABEL": "17"}, "geometry": {"type": "Polygon", "coordinates": [[[7.5602, 44.3966], [7.5604700000000005, 44.3966], [7.5604700000000005, 44.39678], [7.5602, 44.39678], [7.5602, 44.3966]]]}}, {"type": "Feature", "properties": {"NATIONALCADASTALREFERENCE": "X900_000600.18", "LABEL": "18"}, "geometry": {"type": "Polygon", "coordinates": [[[7.5605, 44.3966], [7.560770000000001, 44.3966], [7.560770000000001, 44.39678], [7.5605, 44.39678], [7.5605, 44.3966]]]}}, {"type": "Feature", "properties": {"NATIONALCADASTALREFERENCE": "X900_000600.19", "LABEL": "19"}, "geometry": {"type": "Polygon", "coordinates": [[[7.5607999999999995, 44.3966], [7.56107, 44.3966], [7.56107, 44.39678], [7.5607999999999995, 44.39678], [7.5607999999999995, 44.3966]]]}}, {"type": "Feature", "properties": {"NATIONALCADASTALREFERENCE": "X900_000600.20", "LABEL": "20"}, "geometry": {"type": "Polygon", "coordinates": [[[7.5611, 44.3966], [7.56137, 44.3966], [7.56137, 44.39678], [7.5611, 44.39678], [7.5611, 44.3966]]]}}, {"type": "Feature", "properties": {"NATIONALCADASTALREFERENCE": "X900_000600.21", "LABEL": "21"}, "geometry": {"type": "Polygon", "coordinates": [[[7.5584, 44.3968], [7.55867, 44.3968], [7.55867, 44.39698], [7.5584, 44.39698], [7.5584, 44.3968]]]}}, {"type": "Feature", "properties": {"NATIONALCADASTALREFERENCE": "X900_000600.22", "LABEL": "22"}, "geometry": {"type": "Polygon", "coordinates": [[[7.5587, 44.3968], [7.55897, 44.3968], [7.55897, 44.39698], [7.5587, 44.39698], [7.5587, 44.3968]]]}}, {"type": "Feature", "properties": {"NATIONALCADASTALREFERENCE": "X900_000600.23", "LABEL": "23"}, "geometry": {"type": "Polygon", "coordinates": [[[7.559, 44.3968], [7.559270000000001, 44.3968], [7.559270000000001, 44.39698], [7.559, 44.39698], [7.559, 44.3968]]]}}, {"type": "Feature", "properties": {"NATIONALCADASTALREFERENCE": "X900_000600.24", "LABEL": "24"}, "geometry": {"type": "Polygon", "coordinates": [[[7.5592999999999995, 44.3968], [7.55957, 44.3968], [7.55957, 44.39698], [7.5592999999999995, 44.39698], [7.5592999999999995, 44.3968]]]}}, {"type": "Feature", "properties": {"NATIONALCADASTALREFERENCE": "X900_000600.25", "LABEL": "25"}, "geometry": {"type": "Polygon", "coordinates": [[[7.5596, 44.3968], [7.55987, 44.3968], [7.55987, 44.39698], [7.5596, 44.39698], [7.5596, 44.3968]]]}}, {"type": "Feature", "properties": {"NATIONALCADASTALREFERENCE": "X900_000600.26", "LABEL": "26"}, "geometry": {"type": "Polygon", "coordinates": [[[7.5599, 44.3968], [7.56017, 44.3968], [7.56017, 44.39698], [7.5599, 44.39698], [7.5599, 44.3968]]]}}, {"type": "Feature", "properties": {"NATIONALCADASTALREFERENCE": "X900_000600.27", "LABEL": "27"}, "geometry": {"type": "Polygon", "coordinates": [[[7.5602, 44.3968], [7.5604700000000005, 44.3968], [7.5604700000000005, 44.39698], [7.5602, 44.39698], [7.5602, 44.3968]]]}}, {"type": "Feature", "properties": {"NATIONALCADASTALREFERENCE": "X900_000600.28", "LABEL": "28"}, "geometry": {"type": "Polygon", "coordinates": [[[7.5605, 44.3968], [7.560770000000001, 44.3968], [7.560770000000001, 44.39698], [7.5605, 44.39698], [7.5605, 44.3968]]]}}, {"type": "Feature", "properties": {"NATIONALCADASTALREFERENCE": "X900_000600.29", "LABEL": "29"}, "geometry": {"type": "Polygon", "coordinates": [[[7.5607999999999995, 44.3968], [7.56107, 44.3968], [7.56107, 44.39698], [7.5607999999999995, 44.39698], [7.5607999999999995, 44.3968]]]}}, {"type": "Feature", "properties": {"NATIONALCADASTALREFERENCE": "X900_000600.30", "LABEL": "30"}, "geometry": {"type": "Polygon", "coordinates": [[[7.5611, 44.3968], [7.56137, 44.3968], [7.56137, 44.39698], [7.5611, 44.39698], [7.5611, 44.3968]]]}}, {"type": "Feature", "properties": {"NATIONALCADASTALREFERENCE": "X900_000600.31", "LABEL": "31"}, "geometry": {"type": "Polygon", "coordinates": [[[7.5584, 44.397], [7.55867, 44.397], [7.55867, 44.39718], [7.5584, 44.39718], [7.5584, 44.397]]]}}, {"type": "Feature", "properties": {"NATIONALCADASTALREFERENCE": "X900_000600.32", "LABEL": "32"}, "geometry": {"type": "Polygon", "coordinates": [[[7.5587, 44.397], [7.55897, 44.397], [7.55897, 44.39718], [7.5587, 44.39718], [7.5587, 44.397]]]}}, {"type": "Feature", "properties": {"NATIONALCADASTALREFERENCE": "X900_000600.33", "LABEL": "33"}, "geometry": {"type": "Polygon", "coordinates": [[[7.559, 44.397], [7.559270000000001, 44.397], [7.559270000000001, 44.39718], [7.559, 44.39718], [7.559, 44.397]]]}}, {"type": "Feature", "properties": {"NATIONALCADASTALREFERENCE": "X900_000600.34", "LABEL": "34"}, "geometry": {"type": "Polygon", "coordinates": [[[7.5592999999999995, 44.397], [7.55957, 44.397], [7.55957, 44.39718], [7.5592999999999995, 44.39718], [7.5592999999999995, 44.397]]]}}, {"type": "Feature", "properties": {"NATIONALCADASTALREFERENCE": "X900_000600.35", "LABEL": "35"}, "geometry": {"type": "Polygon", "coordinates": [[[7.5596, 44.397], [7.55987, 44.397], [7.55987, 44.39718], [7.5596, 44.39718], [7.5596, 44.397]]]}}, {"type": "Feature", "properties": {"NATIONALCADASTALREFERENCE": "X900_000600.36", "LABEL": "36"}, "geometry": {"type": "Polygon", "coordinates": [[[7.5599, 44.397], [7.56017, 44.397], [7.56017, 44.39718], [7.5599, 44.39718], [7.5599, 44.397]]]}}, {"type": "Feature", "properties": {"NATIONALCADASTALREFERENCE": "X900_000600.37", "LABEL": "37"}, "geometry": {"type": "Polygon", "coordinates": [[[7.5602, 44.397], [7.5604700000000005, 44.397], [7.5604700000000005, 44.39718], [7.5602, 44.39718], [7.5602, 44.397]]]}}, {"type": "Feature", "properties": {"NATIONALCADASTALREFERENCE": "X900_000600.38", "LABEL": "38"}, "geometry": {"type": "Polygon", "coordinates": [[[7.5605, 44.397], [7.560770000000001, 44.397], [7.560770000000001, 44.39718], [7.5605, 44.39718], [7.5605, 44.397]]]}}, {"type": "Feature", "properties": {"NATIONALCADASTALREFERENCE": "X900_000600.39", "LABEL": "39"}, "geometry": {"type": "Polygon", "coordinates": [[[7.5607999999999995, 44.397], [7.56107, 44.397], [7.56107, 44.39718], [7.5607999999999995, 44.39718], [7.5607999999999995, 44.397]]]}}, {"type": "Feature", "properties": {"NATIONALCADASTALREFERENCE": "X900_000600.40", "LABEL": "40"}, "geometry": {"type": "Polygon", "coordinates": [[[7.5611, 44.397], [7.56137, 44.397], [7.56137, 44.39718], [7.5611, 44.39718], [7.5611, 44.397]]]}}, {"type": "Feature", "properties": {"NATIONALCADASTALREFERENCE": "X900_000600.41", "LABEL": "41"}, "geometry": {"type": "Polygon", "coordinates": [[[7.5584, 44.3972], [7.55867, 44.3972], [7.55867, 44.39738], [7.5584, 44.39738], [7.5584, 44.3972]]]}}, {"type": "Feature", "properties": {"NATIONALCADASTALREFERENCE": "X900_000600.42", "LABEL": "42"}, "geometry": {"type": "Polygon", "coordinates": [[[7.5587, 44.3972], [7.55897, 44.3972], [7.55897, 44.39738], [7.5587, 44.39738], [7.5587, 44.3972]]]}}, {"type": "Feature", "properties": {"NATIONALCADASTALREFERENCE": "X900_000600.43", "LABEL": "43"}, "geometry": {"type": "Polygon", "coordinates": [[[7.559, 44.3972], [7.559270000000001, 44.3972], [7.559270000000001, 44.39738], [7.559, 44.39738], [7.559, 44.3972]]]}}, {"type": "Feature", "properties": {"NATIONALCADASTALREFERENCE": "X900_000600.44", "LABEL": "44"}, "geometry": {"type": "Polygon", "coordinates": [[[7.5592999999999995, 44.3972], [7.55957, 44.3972], [7.55957, 44.39738], [7.5592999999999995, 44.39738], [7.5592999999999995, 44.3972]]]}}, {"type": "Feature", "properties": {"NATIONALCADASTALREFERENCE": "X900_000600.45", "LABEL": "45"}, "geometry": {"type": "Polygon", "coordinates": [[[7.5596, 44.3972], [7.55987, 44.3972], [7.55987, 44.39738], [7.5596, 44.39738], [7.5596, 44.3972]]]}}, {"type": "Feature", "properties": {"NATIONALCADASTALREFERENCE": "X900_000600.46", "LABEL": "46"}, "geometry": {"type": "Polygon", "coordinates": [[[7.5599, 44.3972], [7.56017, 44.3972], [7.56017, 44.39738], [7.5599, 44.39738], [7.5599, 44.3972]]]}}, {"type": "Feature", "properties": {"NATIONALCADASTALREFERENCE": "X900_000600.47", "LABEL": "47"}, "geometry": {"type": "Polygon", "coordinates": [[[7.5602, 44.3972], [7.5604700000000005, 44.3972], [7.5604700000000005, 44.39738], [7.5602, 44.39738], [7.5602, 44.3972]]]}}, {"type": "Feature", "properties": {"NATIONALCADASTALREFERENCE": "X900_000600.48", "LABEL": "48"}, "geometry": {"type": "Polygon", "coordinates": [[[7.5605, 44.3972], [7.560770000000001, 44.3972], [7.560770000000001, 44.39738], [7.5605, 44.39738], [7.5605, 44.3972]]]}}, {"type": "Feature", "properties": {"NATIONALCADASTALREFERENCE": "X900_000600.49", "LABEL": "49"}, "geometry": {"type": "Polygon", "coordinates": [[[7.5607999999999995, 44.3972], [7.56107, 44.3972], [7.56107, 44.39738], [7.5607999999999995, 44.39738], [7.5607999999999995, 44.3972]]]}}, {"type": "Feature", "properties": {"NATIONALCADASTALREFERENCE": "X900_000600.50", "LABEL": "50"}, "geometry": {"type": "Polygon", "coordinates": [[[7.5611, 44.3972], [7.56137, 44.3972], [7.56137, 44.39738], [7.5611, 44.39738], [7.5611, 44.3972]]]}}]}