{"type": "FeatureCollection", "features": [{"type": "Feature", "properties": {"id": "X900-01", "name": "Centro", "municipalityCode": "X900", "indicative": true, "sourceUrl": "dati inventati"}, "geometry": {"type": "Polygon", "coordinates": [[[7.5495, 44.3945], [7.5625, 44.3945], [7.5625, 44.3975], [7.5495, 44.3975], [7.5495, 44.3945]]]}}, {"type": "Feature", "properties": {"id": "X900-02", "name": "Borgo Nord", "municipalityCode": "X900", "indicative": true, "sourceUrl": "dati inventati"}, "geometry": {"type": "Polygon", "coordinates": [[[7.5495, 44.3975], [7.5625, 44.3975], [7.5625, 44.403], [7.5495, 44.403], [7.5495, 44.3975]]]}}, {"type": "Feature", "properties": {"id": "X900-03", "name": "Est", "municipalityCode": "X900", "indicative": true, "sourceUrl": "dati inventati"}, "geometry": {"type": "Polygon", "coordinates": [[[7.5625, 44.3945], [7.576, 44.3945], [7.576, 44.3975], [7.5625, 44.3975], [7.5625, 44.3945]]]}}, {"type": "Feature", "properties": {"id": "X900-04", "name": "Campagna", "municipalityCode": "X900", "indicative": true, "sourceUrl": "dati inventati"}, "geometry": {"type": "Polygon", "coordinates": [[[7.5625, 44.3975], [7.576, 44.3975], [7.576, 44.403], [7.5625, 44.403], [7.5625, 44.3975]]]}}]}